{
"type": "FeatureCollection",
"name": "departements",
"crs": { "type": "name", "properties": { "name": "urn:ogc:def:crs:OGC:1.3:CRS84" } },
"features": [
{ "type": "Feature", "properties": { "NUTS_ID": "FRK27", "LEVL_CODE": 3, "CNTR_CODE": "FR", "NAME_LATN": "Savoie", "NUTS_NAME": "Savoie", "MOUNT_TYPE": 1, "URBN_TYPE": 2, "COAST_TYPE": null, "geo": "FRK27" }, "geometry": { "type": "MultiPolygon", "coordinates": [ [ [ [ 5.8094614, 45.4360953 ], [ 5.9670112, 45.4788265 ], [ 6.1462922, 45.4138958 ], [ 6.1456142, 45.2156709 ], [ 6.26057, 45.1268439 ], [ 6.4323186, 45.0638616 ], [ 6.6300509, 45.1098566 ], [ 7.0943704, 45.2312614 ], [ 7.1643001, 45.3994405 ], [ 7.104723, 45.4684544 ], [ 7.0118857, 45.5119672 ], [ 6.9807864, 45.627455499999989 ], [ 6.8023683, 45.778562 ], [ 6.7149106, 45.7424415 ], [ 6.5006839, 45.8830753 ], [ 6.2517735, 45.6900888 ], [ 6.0038517, 45.7602356 ], [ 5.8312302, 45.938457299999989 ], [ 5.7610143, 45.7380649 ], [ 5.6237432, 45.6132685 ], [ 5.8094614, 45.4360953 ] ] ] ] } },
{ "type": "Feature", "properties": { "NUTS_ID": "FRK28", "LEVL_CODE": 3, "CNTR_CODE": "FR", "NAME_LATN": "Haute-Savoie", "NUTS_NAME": "Haute-Savoie", "MOUNT_TYPE": 1, "URBN_TYPE": 2, "COAST_TYPE": null, "geo": "FRK28" }, "geometry": { "type": "MultiPolygon", "coordinates": [ [ [ [ 5.8262817, 46.0775595 ], [ 5.8312302, 45.938457299999989 ], [ 6.0038517, 45.7602356 ], [ 6.2517735, 45.6900888 ], [ 6.5006839, 45.8830753 ], [ 6.7149106, 45.7424415 ], [ 6.8023683, 45.778562 ], [ 7.044886, 45.9224131 ], [ 6.8180731, 46.1555069 ], [ 6.8210639, 46.4271544 ], [ 6.5044273, 46.4498058 ], [ 6.219547, 46.3118779 ], [ 6.2609539, 46.2437214 ], [ 6.215236, 46.1939528 ], [ 5.9560668, 46.1320955 ], [ 5.8262817, 46.0775595 ] ] ] ] } },
{ "type": "Feature", "properties": { "NUTS_ID": "FRL01", "LEVL_CODE": 3, "CNTR_CODE": "FR", "NAME_LATN": "Alpes-de-Haute-Provence", "NUTS_NAME": "Alpes-de-Haute-Provence", "MOUNT_TYPE": 1, "URBN_TYPE": 3, "COAST_TYPE": null, "geo": "FRL01" }, "geometry": { "type": "MultiPolygon", "coordinates": [ [ [ [ 6.0212829, 43.6859539 ], [ 6.1982713, 43.7839673 ], [ 6.3630769, 43.7490737 ], [ 6.6363903, 43.7889472 ], [ 6.7485777, 43.8866726 ], [ 6.8874093, 43.915482 ], [ 6.7020106, 44.1801835 ], [ 6.887428, 44.361286899999989 ], [ 6.9484431, 44.654742 ], [ 6.6017811, 44.4519113 ], [ 6.369644, 44.4925117 ], [ 6.2262651, 44.4020101 ], [ 6.0649475, 44.461142699999989 ], [ 5.8516476, 44.2774694 ], [ 5.8420197, 44.2116053 ], [ 5.6760361, 44.1914284 ], [ 5.4987863, 44.1157167 ], [ 5.5885805, 43.845160899999989 ], [ 5.7573375, 43.729404599999988 ], [ 6.0212829, 43.6859539 ] ] ] ] } },
{ "type": "Feature", "properties": { "NUTS_ID": "FRL02", "LEVL_CODE": 3, "CNTR_CODE": "FR", "NAME_LATN": "Hautes-Alpes ", "NUTS_NAME": "Hautes-Alpes ", "MOUNT_TYPE": 1, "URBN_TYPE": 3, "COAST_TYPE": null, "geo": "FRL02" }, "geometry": { "type": "MultiPolygon", "coordinates": [ [ [ [ 5.8420197, 44.2116053 ], [ 5.8516476, 44.2774694 ], [ 6.0649475, 44.461142699999989 ], [ 6.2262651, 44.4020101 ], [ 6.369644, 44.4925117 ], [ 6.6017811, 44.4519113 ], [ 6.9484431, 44.654742 ], [ 7.0657551, 44.7134644 ], [ 6.9882372, 44.8351346 ], [ 6.7755916, 44.8996757 ], [ 6.6300509, 45.1098566 ], [ 6.4323186, 45.0638616 ], [ 6.26057, 45.1268439 ], [ 6.2223754, 45.029656 ], [ 6.3385473, 44.9636817 ], [ 6.3366281, 44.868953499999989 ], [ 6.134652, 44.8558933 ], [ 5.80147, 44.7067773 ], [ 5.6423393, 44.6264665 ], [ 5.6038893, 44.4839444 ], [ 5.4536202, 44.4540942 ], [ 5.4614405, 44.3632889 ], [ 5.6401113, 44.2984416 ], [ 5.6760361, 44.1914284 ], [ 5.8420197, 44.2116053 ] ] ] ] } },
{ "type": "Feature", "properties": { "NUTS_ID": "FRL03", "LEVL_CODE": 3, "CNTR_CODE": "FR", "NAME_LATN": "Alpes-Maritimes", "NUTS_NAME": "Alpes-Maritimes", "MOUNT_TYPE": 1, "URBN_TYPE": 1, "COAST_TYPE": 1, "geo": "FRL03" }, "geometry": { "type": "MultiPolygon", "coordinates": [ [ [ [ 7.1873066, 43.6586258 ], [ 7.415697, 43.7259105 ], [ 7.4103975, 43.729345 ], [ 7.4128282, 43.7317125 ], [ 7.413383, 43.7345771 ], [ 7.4373582, 43.7516323 ], [ 7.4392647, 43.7490302 ], [ 7.4405615, 43.7498761 ], [ 7.52986, 43.784013 ], [ 7.5236373, 43.891002899999989 ], [ 7.7142364, 44.0615136 ], [ 7.6616882, 44.161872 ], [ 7.3111363, 44.1383037 ], [ 7.0233725, 44.239177 ], [ 6.887428, 44.361286899999989 ], [ 6.7020106, 44.1801835 ], [ 6.8874093, 43.915482 ], [ 6.7485777, 43.8866726 ], [ 6.6363903, 43.7889472 ], [ 6.9313253, 43.4802579 ], [ 7.1873066, 43.6586258 ] ] ] ] } },
{ "type": "Feature", "properties": { "NUTS_ID": "FRL04", "LEVL_CODE": 3, "CNTR_CODE": "FR", "NAME_LATN": "Bouches-du-Rhône", "NUTS_NAME": "Bouches-du-Rhône", "MOUNT_TYPE": null, "URBN_TYPE": 1, "COAST_TYPE": 1, "geo": "FRL04" }, "geometry": { "type": "MultiPolygon", "coordinates": [ [ [ [ 4.5266189, 43.4418811 ], [ 4.6363813, 43.3583225 ], [ 4.845159, 43.3580104 ], [ 4.9111384, 43.4206364 ], [ 5.0824761, 43.3347674 ], [ 5.312121, 43.3442825 ], [ 5.3682651, 43.2205413 ], [ 5.6718793, 43.1792691 ], [ 5.7414518, 43.2792568 ], [ 5.7008845, 43.6010735 ], [ 5.7765351, 43.6636266 ], [ 5.7536446, 43.7246195 ], [ 5.6077145, 43.6670098 ], [ 5.4553048, 43.6832308 ], [ 4.7390597, 43.9240618 ], [ 4.6209803, 43.7064036 ], [ 4.4898715, 43.6828561 ], [ 4.2302804, 43.4601835 ], [ 4.5266189, 43.4418811 ] ] ] ] } },
{ "type": "Feature", "properties": { "NUTS_ID": "FRL05", "LEVL_CODE": 3, "CNTR_CODE": "FR", "NAME_LATN": "Var", "NUTS_NAME": "Var", "MOUNT_TYPE": 1, "URBN_TYPE": 2, "COAST_TYPE": 1, "geo": "FRL05" }, "geometry": { "type": "MultiPolygon", "coordinates": [ [ [ [ 5.8320898, 43.0627156 ], [ 5.9196497, 43.1095395 ], [ 6.3452127, 43.1029218 ], [ 6.6413231, 43.1810723 ], [ 6.7447744, 43.396242 ], [ 6.9313253, 43.4802579 ], [ 6.6363903, 43.7889472 ], [ 6.3630769, 43.7490737 ], [ 6.1982713, 43.7839673 ], [ 6.0212829, 43.6859539 ], [ 5.7573375, 43.729404599999988 ], [ 5.7536446, 43.7246195 ], [ 5.7765351, 43.6636266 ], [ 5.7008845, 43.6010735 ], [ 5.7414518, 43.2792568 ], [ 5.6718793, 43.1792691 ], [ 5.8320898, 43.0627156 ] ] ] ] } },
{ "type": "Feature", "properties": { "NUTS_ID": "FRL06", "LEVL_CODE": 3, "CNTR_CODE": "FR", "NAME_LATN": "Vaucluse", "NUTS_NAME": "Vaucluse", "MOUNT_TYPE": 1, "URBN_TYPE": 2, "COAST_TYPE": null, "geo": "FRL06" }, "geometry": { "type": "MultiPolygon", "coordinates": [ [ [ [ 4.7971218, 44.0209056 ], [ 4.7390597, 43.9240618 ], [ 5.4553048, 43.6832308 ], [ 5.6077145, 43.6670098 ], [ 5.7536446, 43.7246195 ], [ 5.7573375, 43.729404599999988 ], [ 5.5885805, 43.845160899999989 ], [ 5.4987863, 44.1157167 ], [ 5.1701718, 44.2403996 ], [ 4.9810733, 44.4106784 ], [ 4.8967997, 44.3618505 ], [ 4.8753582, 44.2460389 ], [ 4.6506108, 44.3298029 ], [ 4.6492274, 44.2703601 ], [ 4.7971218, 44.0209056 ] ] ] ] } },
{ "type": "Feature", "properties": { "NUTS_ID": "FRM01", "LEVL_CODE": 3, "CNTR_CODE": "FR", "NAME_LATN": "Corse-du-Sud", "NUTS_NAME": "Corse-du-Sud", "MOUNT_TYPE": 1, "URBN_TYPE": 2, "COAST_TYPE": 1, "geo": "FRM01" }, "geometry": { "type": "MultiPolygon", "coordinates": [ [ [ [ 9.2481255, 41.8601176 ], [ 9.2115441, 42.0045788 ], [ 9.0133743, 42.2079944 ], [ 8.591254, 42.3750978 ], [ 8.663098, 42.2689884 ], [ 8.5849193, 42.1672035 ], [ 8.7098425, 42.0613742 ], [ 8.6782547, 42.0045788 ], [ 8.6312742, 41.9201073 ], [ 8.7828123, 41.8986566 ], [ 8.7220271, 41.7485679 ], [ 8.8594551, 41.678187 ], [ 8.8013933, 41.5989872 ], [ 8.8382282, 41.5340093 ], [ 9.207268, 41.3873661 ], [ 9.3609536, 41.5779851 ], [ 9.4021976, 41.8586661 ], [ 9.2481255, 41.8601176 ] ] ] ] } },
{ "type": "Feature", "properties": { "NUTS_ID": "FRM02", "LEVL_CODE": 3, "CNTR_CODE": "FR", "NAME_LATN": "Haute-Corse", "NUTS_NAME": "Haute-Corse", "MOUNT_TYPE": 1, "URBN_TYPE": 3, "COAST_TYPE": 1, "geo": "FRM02" }, "geometry": { "type": "MultiPolygon", "coordinates": [ [ [ [ 9.4722304, 42.0045788 ], [ 9.5556255, 42.1783318 ], [ 9.5241323, 42.544183 ], [ 9.461183, 42.6747781 ], [ 9.480497, 42.8593531 ], [ 9.4071494, 43.0013859 ], [ 9.3471628, 42.9724023 ], [ 9.3311449, 42.8593531 ], [ 9.3052842, 42.701402 ], [ 9.147126, 42.7275036 ], [ 8.827268, 42.6010777 ], [ 8.6890571, 42.5250232 ], [ 8.591254, 42.3750978 ], [ 9.0133743, 42.2079944 ], [ 9.2115441, 42.0045788 ], [ 9.2481255, 41.8601176 ], [ 9.4021976, 41.8586661 ], [ 9.4722304, 42.0045788 ] ] ] ] } },
{ "type": "Feature", "properties": { "NUTS_ID": "FRY10", "LEVL_CODE": 3, "CNTR_CODE": "FR", "NAME_LATN": "Guadeloupe", "NUTS_NAME": "Guadeloupe", "MOUNT_TYPE": null, "URBN_TYPE": 2, "COAST_TYPE": 1, "geo": "FRY10" }, "geometry": { "type": "MultiPolygon", "coordinates": [ [ [ [ -61.268272599999989, 15.9986704 ], [ -61.3579572, 15.934447 ], [ -61.2779143, 15.8686873 ], [ -61.1914322, 15.9181433 ], [ -61.268272599999989, 15.9986704 ] ] ], [ [ [ -61.5450352, 16.3132574 ], [ -61.7409017, 16.350302 ], [ -61.8223827, 16.2737084 ], [ -61.7736123, 16.0473471 ], [ -61.690511, 15.9464002 ], [ -61.5731289, 16.031128 ], [ -61.5654727, 16.215982 ], [ -61.2491795, 16.2772514 ], [ -61.4660747, 16.506086 ], [ -61.5450352, 16.3132574 ] ] ], [ [ [ -63.052155799999987, 18.09953 ], [ -63.1002969, 18.0721634 ], [ -63.088293, 18.046249 ], [ -63.0192455, 18.0557971 ], [ -63.052155799999987, 18.09953 ] ] ] ] } },
{ "type": "Feature", "properties": { "NUTS_ID": "FRY20", "LEVL_CODE": 3, "CNTR_CODE": "FR", "NAME_LATN": "Martinique ", "NUTS_NAME": "Martinique ", "MOUNT_TYPE": null, "URBN_TYPE": 2, "COAST_TYPE": 1, "geo": "FRY20" }, "geometry": { "type": "MultiPolygon", "coordinates": [ [ [ [ -61.0646877, 14.4979081 ], [ -60.8059045, 14.4721848 ], [ -60.9219965, 14.7319666 ], [ -61.2552771, 14.7631468 ], [ -61.0646877, 14.4979081 ] ] ] ] } },
{ "type": "Feature", "properties": { "NUTS_ID": "FRY30", "LEVL_CODE": 3, "CNTR_CODE": "FR", "NAME_LATN": "Guyane", "NUTS_NAME": "Guyane", "MOUNT_TYPE": null, "URBN_TYPE": 2, "COAST_TYPE": 1, "geo": "FRY30" }, "geometry": { "type": "MultiPolygon", "coordinates": [ [ [ [ -51.8274258, 4.6360779 ], [ -52.3905908, 4.9518085 ], [ -52.9227143, 5.4283152 ], [ -53.9677451, 5.7451157 ], [ -54.0248834, 5.6279873 ], [ -54.0541078, 5.4939797 ], [ -54.2992128, 5.2349036 ], [ -54.4703088, 4.8856977 ], [ -54.441372099999988, 4.4145557 ], [ -54.336655, 4.0306033 ], [ -54.0077524, 3.5055188 ], [ -54.1763309, 3.1739562 ], [ -54.2393478, 2.7400291 ], [ -54.3924419, 2.4845581 ], [ -54.600285899999989, 2.3374522 ], [ -54.4347207, 2.2165157 ], [ -54.16051, 2.1390847 ], [ -53.7824735, 2.341431 ], [ -53.5373176, 2.2670207 ], [ -53.3230583, 2.3073081 ], [ -53.1587185, 2.2107088 ], [ -52.9035457, 2.2136642 ], [ -52.5719231, 2.5204521 ], [ -52.3158931, 3.176932 ], [ -51.6620501, 4.0654215 ], [ -51.6242856, 4.2009623 ], [ -51.8274258, 4.6360779 ] ] ] ] } },
{ "type": "Feature", "properties": { "NUTS_ID": "FRY40", "LEVL_CODE": 3, "CNTR_CODE": "FR", "NAME_LATN": "La Réunion", "NUTS_NAME": "La Réunion", "MOUNT_TYPE": null, "URBN_TYPE": 1, "COAST_TYPE": 1, "geo": "FRY40" }, "geometry": { "type": "MultiPolygon", "coordinates": [ [ [ [ 55.2962734, -21.2319522 ], [ 55.407029699999988, -21.3226536 ], [ 55.6425688, -21.3895411 ], [ 55.8080663, -21.3212689 ], [ 55.8256161, -21.1674754 ], [ 55.6300764, -20.9090483 ], [ 55.4186898, -20.8796679 ], [ 55.2924172, -20.932121 ], [ 55.206261299999987, -21.0355426 ], [ 55.2962734, -21.2319522 ] ] ] ] } },
{ "type": "Feature", "properties": { "NUTS_ID": "FRY50", "LEVL_CODE": 3, "CNTR_CODE": "FR", "NAME_LATN": "Mayotte ", "NUTS_NAME": "Mayotte ", "MOUNT_TYPE": null, "URBN_TYPE": 1, "COAST_TYPE": 1, "geo": "FRY50" }, "geometry": { "type": "MultiPolygon", "coordinates": [ [ [ [ 45.1287035, -12.9640746 ], [ 45.209446199999988, -12.9012021 ], [ 45.2280067, -12.7712249 ], [ 45.1024674, -12.6770296 ], [ 45.0457136, -12.7251666 ], [ 45.1287035, -12.9640746 ] ] ] ] } },
{ "type": "Feature", "properties": { "NUTS_ID": "FR101", "LEVL_CODE": 3, "CNTR_CODE": "FR", "NAME_LATN": "Paris", "NUTS_NAME": "Paris", "MOUNT_TYPE": null, "URBN_TYPE": 1, "COAST_TYPE": null, "geo": "FR101" }, "geometry": { "type": "MultiPolygon", "coordinates": [ [ [ [ 2.3198869, 48.90046 ], [ 2.2690081, 48.854549399999989 ], [ 2.331898, 48.8170108 ], [ 2.4163408, 48.8492341 ], [ 2.3198869, 48.90046 ] ] ] ] } },
{ "type": "Feature", "properties": { "NUTS_ID": "FR102", "LEVL_CODE": 3, "CNTR_CODE": "FR", "NAME_LATN": "Seine-et-Marne ", "NUTS_NAME": "Seine-et-Marne ", "MOUNT_TYPE": null, "URBN_TYPE": 2, "COAST_TYPE": null, "geo": "FR102" }, "geometry": { "type": "MultiPolygon", "coordinates": [ [ [ [ 3.4370543, 48.8828447 ], [ 3.0718801, 49.1175536 ], [ 3.0163266, 49.1131795 ], [ 2.5905286, 49.0796541 ], [ 2.5530566, 49.009816 ], [ 2.5922737, 48.807437299999989 ], [ 2.5716533, 48.6920171 ], [ 2.4773715, 48.3801441 ], [ 2.4026632, 48.3207176 ], [ 2.5543149, 48.1450845 ], [ 2.9363161, 48.1633916 ], [ 3.0163266, 48.2697854 ], [ 3.0725993, 48.3446138 ], [ 3.4137714, 48.3801441 ], [ 3.4052298, 48.4834155 ], [ 3.4370543, 48.5123802 ], [ 3.555614, 48.6202856 ], [ 3.4721392, 48.6418495 ], [ 3.4370543, 48.7208631 ], [ 3.4147873, 48.7710098 ], [ 3.4370543, 48.7965995 ], [ 3.4851835, 48.851910599999989 ], [ 3.4370543, 48.8828447 ] ] ] ] } },
{ "type": "Feature", "properties": { "NUTS_ID": "FR103", "LEVL_CODE": 3, "CNTR_CODE": "FR", "NAME_LATN": "Yvelines ", "NUTS_NAME": "Yvelines ", "MOUNT_TYPE": null, "URBN_TYPE": 1, "COAST_TYPE": null, "geo": "FR103" }, "geometry": { "type": "MultiPolygon", "coordinates": [ [ [ [ 1.4834771, 49.0300783 ], [ 1.5015266, 48.941052 ], [ 1.6177257, 48.6685308 ], [ 1.8220247, 48.4737988 ], [ 1.9221467, 48.4575994 ], [ 2.0650345, 48.6836185 ], [ 2.226554, 48.7761018 ], [ 2.1594829, 48.8397124 ], [ 2.2005911, 48.9086794 ], [ 2.0743871, 49.0119755 ], [ 1.6087989, 49.077894 ], [ 1.4834771, 49.0300783 ] ] ] ] } },
{ "type": "Feature", "properties": { "NUTS_ID": "FR104", "LEVL_CODE": 3, "CNTR_CODE": "FR", "NAME_LATN": "Essonne", "NUTS_NAME": "Essonne", "MOUNT_TYPE": null, "URBN_TYPE": 1, "COAST_TYPE": null, "geo": "FR104" }, "geometry": { "type": "MultiPolygon", "coordinates": [ [ [ [ 2.0650345, 48.6836185 ], [ 1.9221467, 48.4575994 ], [ 1.968769, 48.3801441 ], [ 1.9940901, 48.2865841 ], [ 2.4026632, 48.3207176 ], [ 2.4773715, 48.3801441 ], [ 2.5716533, 48.6920171 ], [ 2.3207205, 48.7487579 ], [ 2.226554, 48.7761018 ], [ 2.0650345, 48.6836185 ] ] ] ] } },
{ "type": "Feature", "properties": { "NUTS_ID": "FR105", "LEVL_CODE": 3, "CNTR_CODE": "FR", "NAME_LATN": "Hauts-de-Seine ", "NUTS_NAME": "Hauts-de-Seine ", "MOUNT_TYPE": null, "URBN_TYPE": 1, "COAST_TYPE": null, "geo": "FR105" }, "geometry": { "type": "MultiPolygon", "coordinates": [ [ [ [ 2.2005911, 48.9086794 ], [ 2.1594829, 48.8397124 ], [ 2.226554, 48.7761018 ], [ 2.3207205, 48.7487579 ], [ 2.331898, 48.8170108 ], [ 2.2690081, 48.854549399999989 ], [ 2.3198869, 48.90046 ], [ 2.2909693, 48.950966 ], [ 2.2005911, 48.9086794 ] ] ] ] } },
{ "type": "Feature", "properties": { "NUTS_ID": "FR106", "LEVL_CODE": 3, "CNTR_CODE": "FR", "NAME_LATN": "Seine-Saint-Denis ", "NUTS_NAME": "Seine-Saint-Denis ", "MOUNT_TYPE": null, "URBN_TYPE": 1, "COAST_TYPE": null, "geo": "FR106" }, "geometry": { "type": "MultiPolygon", "coordinates": [ [ [ [ 2.2909693, 48.950966 ], [ 2.3198869, 48.90046 ], [ 2.4163408, 48.8492341 ], [ 2.5922737, 48.807437299999989 ], [ 2.5530566, 49.009816 ], [ 2.2909693, 48.950966 ] ] ] ] } },
{ "type": "Feature", "properties": { "NUTS_ID": "FR107", "LEVL_CODE": 3, "CNTR_CODE": "FR", "NAME_LATN": "Val-de-Marne", "NUTS_NAME": "Val-de-Marne", "MOUNT_TYPE": null, "URBN_TYPE": 1, "COAST_TYPE": null, "geo": "FR107" }, "geometry": { "type": "MultiPolygon", "coordinates": [ [ [ [ 2.5922737, 48.807437299999989 ], [ 2.4163408, 48.8492341 ], [ 2.331898, 48.8170108 ], [ 2.3207205, 48.7487579 ], [ 2.5716533, 48.6920171 ], [ 2.5922737, 48.807437299999989 ] ] ] ] } },
{ "type": "Feature", "properties": { "NUTS_ID": "FR108", "LEVL_CODE": 3, "CNTR_CODE": "FR", "NAME_LATN": "Val-d’Oise", "NUTS_NAME": "Val-d’Oise", "MOUNT_TYPE": null, "URBN_TYPE": 1, "COAST_TYPE": null, "geo": "FR108" }, "geometry": { "type": "MultiPolygon", "coordinates": [ [ [ [ 1.6087989, 49.077894 ], [ 2.0743871, 49.0119755 ], [ 2.2005911, 48.9086794 ], [ 2.2909693, 48.950966 ], [ 2.5530566, 49.009816 ], [ 2.5905286, 49.0796541 ], [ 2.1159631, 49.198932299999989 ], [ 1.7881659, 49.1781149 ], [ 1.7043588, 49.2321971 ], [ 1.6087989, 49.077894 ] ] ] ] } },
{ "type": "Feature", "properties": { "NUTS_ID": "FRB01", "LEVL_CODE": 3, "CNTR_CODE": "FR", "NAME_LATN": "Cher", "NUTS_NAME": "Cher", "MOUNT_TYPE": null, "URBN_TYPE": 3, "COAST_TYPE": null, "geo": "FRB01" }, "geometry": { "type": "MultiPolygon", "coordinates": [ [ [ [ 2.6568492, 47.506571799999989 ], [ 2.2392133, 47.6209755 ], [ 2.1462058, 47.5819446 ], [ 2.2404994, 47.4516711 ], [ 2.1181762, 47.399912699999987 ], [ 2.1309477, 47.3026974 ], [ 1.8390803, 47.2193034 ], [ 1.8347734, 47.1246149 ], [ 1.9909206, 47.1089695 ], [ 2.0875849, 46.9982599 ], [ 2.1028074, 46.7313219 ], [ 2.1757539, 46.6430028 ], [ 2.1677844, 46.4240691 ], [ 2.2810435, 46.4204035 ], [ 2.5666933, 46.5514026 ], [ 2.6958429, 46.7128546 ], [ 3.0320628, 46.794909399999987 ], [ 3.0676904, 47.0090474 ], [ 3.0163266, 47.153613799999988 ], [ 2.9854648, 47.2404761 ], [ 2.8924694, 47.335735799999988 ], [ 2.8746307, 47.520425 ], [ 2.6568492, 47.506571799999989 ] ] ] ] } },
{ "type": "Feature", "properties": { "NUTS_ID": "FRB02", "LEVL_CODE": 3, "CNTR_CODE": "FR", "NAME_LATN": "Eure-et-Loir", "NUTS_NAME": "Eure-et-Loir", "MOUNT_TYPE": null, "URBN_TYPE": 3, "COAST_TYPE": null, "geo": "FRB02" }, "geometry": { "type": "MultiPolygon", "coordinates": [ [ [ [ 1.3060574, 48.766662 ], [ 1.1394171, 48.7753416 ], [ 0.8148247, 48.6701636 ], [ 0.9478429, 48.5209699 ], [ 0.9188096, 48.3801441 ], [ 0.7822626, 48.3220076 ], [ 0.7976584, 48.194455 ], [ 0.8412176, 48.1030595 ], [ 1.0335626, 48.1196036 ], [ 1.2477861, 47.9665034 ], [ 1.5201242, 47.982275099999988 ], [ 1.6287989, 48.0594219 ], [ 1.8672032, 48.0976758 ], [ 1.9940901, 48.2865841 ], [ 1.968769, 48.3801441 ], [ 1.9221467, 48.4575994 ], [ 1.8220247, 48.4737988 ], [ 1.6177257, 48.6685308 ], [ 1.5015266, 48.941052 ], [ 1.3060574, 48.766662 ] ] ] ] } },
{ "type": "Feature", "properties": { "NUTS_ID": "FRB03", "LEVL_CODE": 3, "CNTR_CODE": "FR", "NAME_LATN": "Indre", "NUTS_NAME": "Indre", "MOUNT_TYPE": null, "URBN_TYPE": 3, "COAST_TYPE": null, "geo": "FRB03" }, "geometry": { "type": "MultiPolygon", "coordinates": [ [ [ [ 1.6959498, 47.2653702 ], [ 1.3266591, 47.1862214 ], [ 1.3429631, 47.1284589 ], [ 1.266671, 47.0477801 ], [ 1.0744134, 46.9967998 ], [ 0.974372, 46.7637425 ], [ 0.8674692, 46.7482164 ], [ 0.9349789, 46.5954645 ], [ 1.135575, 46.4939339 ], [ 1.177279, 46.3839481 ], [ 1.4151853, 46.3472148 ], [ 1.7962795, 46.4367775 ], [ 2.1677844, 46.4240691 ], [ 2.1757539, 46.6430028 ], [ 2.1028074, 46.7313219 ], [ 2.0875849, 46.9982599 ], [ 1.9909206, 47.1089695 ], [ 1.8347734, 47.1246149 ], [ 1.8390803, 47.2193034 ], [ 1.6959498, 47.2653702 ] ] ] ] } },
{ "type": "Feature", "properties": { "NUTS_ID": "FRB04", "LEVL_CODE": 3, "CNTR_CODE": "FR", "NAME_LATN": "Indre-et-Loire", "NUTS_NAME": "Indre-et-Loire", "MOUNT_TYPE": null, "URBN_TYPE": 2, "COAST_TYPE": null, "geo": "FRB04" }, "geometry": { "type": "MultiPolygon", "coordinates": [ [ [ [ 0.216369, 47.5739906 ], [ 0.05383, 47.1637336 ], [ 0.3687903, 46.9476089 ], [ 0.6707594, 46.9678572 ], [ 0.8674692, 46.7482164 ], [ 0.974372, 46.7637425 ], [ 1.0744134, 46.9967998 ], [ 1.266671, 47.0477801 ], [ 1.3429631, 47.1284589 ], [ 1.3266591, 47.1862214 ], [ 1.1229988, 47.310984399999988 ], [ 1.031944, 47.5972705 ], [ 0.6707594, 47.6811365 ], [ 0.6144323, 47.6942154 ], [ 0.3647229, 47.5838684 ], [ 0.2300006, 47.608397499999988 ], [ 0.216369, 47.5739906 ] ] ] ] } },
{ "type": "Feature", "properties": { "NUTS_ID": "FRB05", "LEVL_CODE": 3, "CNTR_CODE": "FR", "NAME_LATN": "Loir-et-Cher", "NUTS_NAME": "Loir-et-Cher", "MOUNT_TYPE": null, "URBN_TYPE": 3, "COAST_TYPE": null, "geo": "FRB05" }, "geometry": { "type": "MultiPolygon", "coordinates": [ [ [ [ 1.2477861, 47.9665034 ], [ 1.0335626, 48.1196036 ], [ 0.8412176, 48.1030595 ], [ 0.8346123, 47.953119099999981 ], [ 0.6707594, 47.7604489 ], [ 0.6144323, 47.6942154 ], [ 0.6707594, 47.6811365 ], [ 1.031944, 47.5972705 ], [ 1.1229988, 47.310984399999988 ], [ 1.3266591, 47.1862214 ], [ 1.6959498, 47.2653702 ], [ 1.8390803, 47.2193034 ], [ 2.1309477, 47.3026974 ], [ 2.1181762, 47.399912699999987 ], [ 2.2404994, 47.4516711 ], [ 2.1462058, 47.5819446 ], [ 2.2392133, 47.6209755 ], [ 2.1623967, 47.6765765 ], [ 1.7527286, 47.674091499999982 ], [ 1.5503989, 47.7873871 ], [ 1.5702879, 47.8941442 ], [ 1.5201242, 47.982275099999988 ], [ 1.2477861, 47.9665034 ] ] ] ] } },
{ "type": "Feature", "properties": { "NUTS_ID": "FRB06", "LEVL_CODE": 3, "CNTR_CODE": "FR", "NAME_LATN": "Loiret", "NUTS_NAME": "Loiret", "MOUNT_TYPE": null, "URBN_TYPE": 2, "COAST_TYPE": null, "geo": "FRB06" }, "geometry": { "type": "MultiPolygon", "coordinates": [ [ [ [ 1.8672032, 48.0976758 ], [ 1.6287989, 48.0594219 ], [ 1.5201242, 47.982275099999988 ], [ 1.5702879, 47.8941442 ], [ 1.5503989, 47.7873871 ], [ 1.7527286, 47.674091499999982 ], [ 2.1623967, 47.6765765 ], [ 2.2392133, 47.6209755 ], [ 2.6568492, 47.506571799999989 ], [ 2.8746307, 47.520425 ], [ 2.9765355, 47.5694245 ], [ 2.886016, 47.737195 ], [ 3.0163266, 47.8138092 ], [ 3.1187949, 48.003441 ], [ 3.0163266, 48.0932589 ], [ 2.9363161, 48.1633916 ], [ 2.5543149, 48.1450845 ], [ 2.4026632, 48.3207176 ], [ 1.9940901, 48.2865841 ], [ 1.8672032, 48.0976758 ] ] ] ] } },
{ "type": "Feature", "properties": { "NUTS_ID": "FRC11", "LEVL_CODE": 3, "CNTR_CODE": "FR", "NAME_LATN": "Côte-d’Or", "NUTS_NAME": "Côte-d’Or", "MOUNT_TYPE": null, "URBN_TYPE": 2, "COAST_TYPE": null, "geo": "FRC11" }, "geometry": { "type": "MultiPolygon", "coordinates": [ [ [ [ 5.2656023, 47.590438 ], [ 4.975789, 47.7115134 ], [ 4.9491084, 47.868226199999988 ], [ 4.7042332, 48.0202349 ], [ 4.2934216, 47.9256735 ], [ 4.3225387, 47.7748062 ], [ 4.1272947, 47.506241499999987 ], [ 4.1060806, 47.3392549 ], [ 4.2098313, 47.155411099999988 ], [ 4.6862637, 46.9279404 ], [ 5.2552327, 46.9798876 ], [ 5.5185376, 47.304184 ], [ 5.4261919, 47.4456527 ], [ 5.4765318, 47.5873068 ], [ 5.37408, 47.6045379 ], [ 5.2656023, 47.590438 ] ] ] ] } },
{ "type": "Feature", "properties": { "NUTS_ID": "FRC12", "LEVL_CODE": 3, "CNTR_CODE": "FR", "NAME_LATN": "Nièvre", "NUTS_NAME": "Nièvre", "MOUNT_TYPE": null, "URBN_TYPE": 3, "COAST_TYPE": null, "geo": "FRC12" }, "geometry": { "type": "MultiPolygon", "coordinates": [ [ [ [ 2.8746307, 47.520425 ], [ 2.8924694, 47.335735799999988 ], [ 2.9854648, 47.2404761 ], [ 3.0163266, 47.153613799999988 ], [ 3.0676904, 47.0090474 ], [ 3.0320628, 46.794909399999987 ], [ 3.1940421, 46.6927035 ], [ 3.4370543, 46.6764652 ], [ 3.488478, 46.673029 ], [ 3.6294223, 46.7494566 ], [ 3.8294027, 46.7233564 ], [ 4.0183159, 46.7888017 ], [ 4.0760143, 47.0531036 ], [ 4.2098313, 47.155411099999988 ], [ 4.1060806, 47.3392549 ], [ 3.7676701, 47.3940589 ], [ 3.5228817, 47.5072063 ], [ 3.4370543, 47.5002267 ], [ 3.3136469, 47.4901911 ], [ 3.0163266, 47.5600722 ], [ 2.9765355, 47.5694245 ], [ 2.8746307, 47.520425 ] ] ] ] } },
{ "type": "Feature", "properties": { "NUTS_ID": "FRC13", "LEVL_CODE": 3, "CNTR_CODE": "FR", "NAME_LATN": "Saône-et-Loire", "NUTS_NAME": "Saône-et-Loire", "MOUNT_TYPE": null, "URBN_TYPE": 3, "COAST_TYPE": null, "geo": "FRC13" }, "geometry": { "type": "MultiPolygon", "coordinates": [ [ [ [ 4.0760143, 47.0531036 ], [ 4.0183159, 46.7888017 ], [ 3.8294027, 46.7233564 ], [ 3.6294223, 46.7494566 ], [ 3.7595087, 46.5418855 ], [ 3.9858257, 46.4487362 ], [ 3.9807532, 46.331676 ], [ 3.8995386, 46.2759078 ], [ 3.9872847, 46.1794397 ], [ 4.300052, 46.174252599999988 ], [ 4.3880746, 46.2197904 ], [ 4.4423772, 46.2924602 ], [ 4.6629983, 46.2876386 ], [ 4.7802086, 46.1766759 ], [ 4.9455053, 46.4980154 ], [ 5.1520548, 46.5053344 ], [ 5.3105637, 46.4467701 ], [ 5.3920871, 46.4786552 ], [ 5.4222491, 46.6586259 ], [ 5.370736, 46.7798432 ], [ 5.3964105, 46.8700688 ], [ 5.2552327, 46.9798876 ], [ 4.6862637, 46.9279404 ], [ 4.2098313, 47.155411099999988 ], [ 4.0760143, 47.0531036 ] ] ] ] } },
{ "type": "Feature", "properties": { "NUTS_ID": "FRC14", "LEVL_CODE": 3, "CNTR_CODE": "FR", "NAME_LATN": "Yonne", "NUTS_NAME": "Yonne", "MOUNT_TYPE": null, "URBN_TYPE": 3, "COAST_TYPE": null, "geo": "FRC14" }, "geometry": { "type": "MultiPolygon", "coordinates": [ [ [ [ 3.0725993, 48.3446138 ], [ 3.0163266, 48.2697854 ], [ 2.9363161, 48.1633916 ], [ 3.0163266, 48.0932589 ], [ 3.1187949, 48.003441 ], [ 3.0163266, 47.8138092 ], [ 2.886016, 47.737195 ], [ 2.9765355, 47.5694245 ], [ 3.0163266, 47.5600722 ], [ 3.3136469, 47.4901911 ], [ 3.4370543, 47.5002267 ], [ 3.5228817, 47.5072063 ], [ 3.7676701, 47.3940589 ], [ 4.1060806, 47.3392549 ], [ 4.1272947, 47.506241499999987 ], [ 4.3225387, 47.7748062 ], [ 4.2934216, 47.9256735 ], [ 3.9154927, 47.940981 ], [ 3.7514662, 48.1441213 ], [ 3.6406873, 48.17442 ], [ 3.5703226, 48.3086739 ], [ 3.4370543, 48.3695148 ], [ 3.4137714, 48.3801441 ], [ 3.0725993, 48.3446138 ] ] ] ] } },
{ "type": "Feature", "properties": { "NUTS_ID": "FRC21", "LEVL_CODE": 3, "CNTR_CODE": "FR", "NAME_LATN": "Doubs", "NUTS_NAME": "Doubs", "MOUNT_TYPE": 1, "URBN_TYPE": 2, "COAST_TYPE": null, "geo": "FRC21" }, "geometry": { "type": "MultiPolygon", "coordinates": [ [ [ [ 6.3648817, 47.5081205 ], [ 6.0685877, 47.3513727 ], [ 5.6987272, 47.2650006 ], [ 5.7979103, 47.1571208 ], [ 5.8057957, 47.0351067 ], [ 6.1566901, 46.7896765 ], [ 6.0707456, 46.635538399999987 ], [ 6.1381058, 46.557667 ], [ 6.4174847, 46.7586081 ], [ 6.460011, 46.8515515 ], [ 6.4637572, 46.9339905 ], [ 6.8589139, 47.1652946 ], [ 7.0236876, 47.3318019 ], [ 6.9379068, 47.3754414 ], [ 6.939186, 47.433704399999989 ], [ 6.9007578, 47.525906199999987 ], [ 6.8069986, 47.5628 ], [ 6.3648817, 47.5081205 ] ] ] ] } },
{ "type": "Feature", "properties": { "NUTS_ID": "FRC22", "LEVL_CODE": 3, "CNTR_CODE": "FR", "NAME_LATN": "Jura", "NUTS_NAME": "Jura", "MOUNT_TYPE": 1, "URBN_TYPE": 3, "COAST_TYPE": null, "geo": "FRC22" }, "geometry": { "type": "MultiPolygon", "coordinates": [ [ [ [ 5.5185376, 47.304184 ], [ 5.2552327, 46.9798876 ], [ 5.3964105, 46.8700688 ], [ 5.370736, 46.7798432 ], [ 5.4222491, 46.6586259 ], [ 5.3920871, 46.4786552 ], [ 5.3105637, 46.4467701 ], [ 5.4610865, 46.2838202 ], [ 5.6493328, 46.3176014 ], [ 5.7770353, 46.262525 ], [ 5.9019884, 46.2857261 ], [ 6.0640028, 46.4162291 ], [ 6.1381058, 46.557667 ], [ 6.0707456, 46.635538399999987 ], [ 6.1566901, 46.7896765 ], [ 5.8057957, 47.0351067 ], [ 5.7979103, 47.1571208 ], [ 5.6987272, 47.2650006 ], [ 5.5185376, 47.304184 ] ] ] ] } },
{ "type": "Feature", "properties": { "NUTS_ID": "FRC23", "LEVL_CODE": 3, "CNTR_CODE": "FR", "NAME_LATN": "Haute-Saône", "NUTS_NAME": "Haute-Saône", "MOUNT_TYPE": null, "URBN_TYPE": 3, "COAST_TYPE": null, "geo": "FRC23" }, "geometry": { "type": "MultiPolygon", "coordinates": [ [ [ [ 5.7178225, 47.8258377 ], [ 5.6690262, 47.6897941 ], [ 5.4298455, 47.6672938 ], [ 5.37408, 47.6045379 ], [ 5.4765318, 47.5873068 ], [ 5.4261919, 47.4456527 ], [ 5.5185376, 47.304184 ], [ 5.6987272, 47.2650006 ], [ 6.0685877, 47.3513727 ], [ 6.3648817, 47.5081205 ], [ 6.8069986, 47.5628 ], [ 6.7693273, 47.7311531 ], [ 6.8235336, 47.8130509 ], [ 6.6086361, 47.9268173 ], [ 6.2188549, 47.9425077 ], [ 6.115305, 48.0109774 ], [ 5.8847237, 47.9260464 ], [ 5.7178225, 47.8258377 ] ] ] ] } },
{ "type": "Feature", "properties": { "NUTS_ID": "FRC24", "LEVL_CODE": 3, "CNTR_CODE": "FR", "NAME_LATN": "Territoire de Belfort", "NUTS_NAME": "Territoire de Belfort", "MOUNT_TYPE": null, "URBN_TYPE": 2, "COAST_TYPE": null, "geo": "FRC24" }, "geometry": { "type": "MultiPolygon", "coordinates": [ [ [ [ 6.8235336, 47.8130509 ], [ 6.7693273, 47.7311531 ], [ 6.8069986, 47.5628 ], [ 6.9007578, 47.525906199999987 ], [ 6.939186, 47.433704399999989 ], [ 7.1303532, 47.503040399999989 ], [ 7.0178097, 47.7212266 ], [ 6.8461757, 47.8229426 ], [ 6.8235336, 47.8130509 ] ] ] ] } },
{ "type": "Feature", "properties": { "NUTS_ID": "FRD11", "LEVL_CODE": 3, "CNTR_CODE": "FR", "NAME_LATN": "Calvados ", "NUTS_NAME": "Calvados ", "MOUNT_TYPE": null, "URBN_TYPE": 2, "COAST_TYPE": 1, "geo": "FRD11" }, "geometry": { "type": "MultiPolygon", "coordinates": [ [ [ [ 0.216369, 49.4068324 ], [ -0.2080219, 49.285733199999989 ], [ -0.7966022, 49.3545927 ], [ -0.9327987, 49.377689599999989 ], [ -1.0184351, 49.3922122 ], [ -1.0791832, 49.3502058 ], [ -1.1195874, 49.322266899999988 ], [ -0.8937299, 49.0755202 ], [ -1.0619072, 48.8221958 ], [ -0.8328707, 48.752607399999988 ], [ -0.7966022, 48.7704364 ], [ -0.4968461, 48.8466299 ], [ -0.1201295, 48.8277415 ], [ 0.1137993, 48.9342718 ], [ 0.216369, 48.939882 ], [ 0.4128107, 48.9506266 ], [ 0.3991935, 49.1640544 ], [ 0.2972213, 49.4299034 ], [ 0.216369, 49.4068324 ] ] ] ] } },
{ "type": "Feature", "properties": { "NUTS_ID": "FRD12", "LEVL_CODE": 3, "CNTR_CODE": "FR", "NAME_LATN": "Manche ", "NUTS_NAME": "Manche ", "MOUNT_TYPE": null, "URBN_TYPE": 3, "COAST_TYPE": 1, "geo": "FRD12" }, "geometry": { "type": "MultiPolygon", "coordinates": [ [ [ [ -1.2276599, 49.4593957 ], [ -1.284473, 49.5307392 ], [ -1.2473858, 49.6331628 ], [ -1.3248009, 49.6874172 ], [ -1.6126932, 49.6531646 ], [ -1.9252543, 49.7099148 ], [ -1.8308967, 49.4593957 ], [ -1.6144065, 49.1948495 ], [ -1.5629131, 48.9814917 ], [ -1.5925331, 48.8147757 ], [ -1.4746236, 48.642473699999989 ], [ -1.5122956, 48.6173958 ], [ -1.5710998, 48.626501 ], [ -1.4245571, 48.4877915 ], [ -1.0701643, 48.508492 ], [ -0.9327987, 48.503887 ], [ -0.8603599, 48.5014586 ], [ -0.7549252, 48.6391055 ], [ -0.8328707, 48.752607399999988 ], [ -1.0619072, 48.8221958 ], [ -0.8937299, 49.0755202 ], [ -1.1195874, 49.322266899999988 ], [ -1.2276599, 49.4593957 ] ] ] ] } },
{ "type": "Feature", "properties": { "NUTS_ID": "FRD13", "LEVL_CODE": 3, "CNTR_CODE": "FR", "NAME_LATN": "Orne", "NUTS_NAME": "Orne", "MOUNT_TYPE": null, "URBN_TYPE": 3, "COAST_TYPE": null, "geo": "FRD13" }, "geometry": { "type": "MultiPolygon", "coordinates": [ [ [ [ 0.7247747, 48.7812073 ], [ 0.6707594, 48.803013199999988 ], [ 0.4248566, 48.9022835 ], [ 0.4128107, 48.9506266 ], [ 0.216369, 48.939882 ], [ 0.1137993, 48.9342718 ], [ -0.1201295, 48.8277415 ], [ -0.4968461, 48.8466299 ], [ -0.7966022, 48.7704364 ], [ -0.8328707, 48.752607399999988 ], [ -0.7549252, 48.6391055 ], [ -0.8603599, 48.5014586 ], [ -0.7613197, 48.4708729 ], [ -0.2183448, 48.5386026 ], [ -0.053214, 48.3801441 ], [ 0.216369, 48.4532621 ], [ 0.2717862, 48.4789274 ], [ 0.35487, 48.4441285 ], [ 0.3790787, 48.3801441 ], [ 0.5399383, 48.2628833 ], [ 0.6707594, 48.2281485 ], [ 0.7976584, 48.194455 ], [ 0.7822626, 48.3220076 ], [ 0.9188096, 48.3801441 ], [ 0.9478429, 48.5209699 ], [ 0.8148247, 48.6701636 ], [ 0.7247747, 48.7812073 ] ] ] ] } },
{ "type": "Feature", "properties": { "NUTS_ID": "FRD21", "LEVL_CODE": 3, "CNTR_CODE": "FR", "NAME_LATN": "Eure", "NUTS_NAME": "Eure", "MOUNT_TYPE": null, "URBN_TYPE": 3, "COAST_TYPE": 1, "geo": "FRD21" }, "geometry": { "type": "MultiPolygon", "coordinates": [ [ [ [ 0.5834522, 49.4338096 ], [ 0.5009805, 49.4781067 ], [ 0.4012733, 49.445958 ], [ 0.2972213, 49.4299034 ], [ 0.3991935, 49.1640544 ], [ 0.4128107, 48.9506266 ], [ 0.4248566, 48.9022835 ], [ 0.6707594, 48.803013199999988 ], [ 0.7247747, 48.7812073 ], [ 0.8148247, 48.6701636 ], [ 1.1394171, 48.7753416 ], [ 1.3060574, 48.766662 ], [ 1.5015266, 48.941052 ], [ 1.4834771, 49.0300783 ], [ 1.6087989, 49.077894 ], [ 1.7043588, 49.2321971 ], [ 1.7565947, 49.300374399999988 ], [ 1.7139305, 49.409225 ], [ 1.3802145, 49.4473384 ], [ 1.0236059, 49.2628847 ], [ 0.9055258, 49.3728706 ], [ 0.6707594, 49.4210611 ], [ 0.6209959, 49.431276 ], [ 0.5834522, 49.4338096 ] ] ] ] } },
{ "type": "Feature", "properties": { "NUTS_ID": "FRD22", "LEVL_CODE": 3, "CNTR_CODE": "FR", "NAME_LATN": "Seine-Maritime", "NUTS_NAME": "Seine-Maritime", "MOUNT_TYPE": null, "URBN_TYPE": 2, "COAST_TYPE": 1, "geo": "FRD22" }, "geometry": { "type": "MultiPolygon", "coordinates": [ [ [ [ 1.0816273, 49.933887299999988 ], [ 0.6707594, 49.8634876 ], [ 0.5869434, 49.8491263 ], [ 0.216369, 49.7157444 ], [ 0.0765929, 49.521739 ], [ 0.122182, 49.4711915 ], [ 0.216369, 49.4510921 ], [ 0.3851102, 49.4525703 ], [ 0.5060579, 49.485968899999989 ], [ 0.581313, 49.4381056 ], [ 0.6209959, 49.431276 ], [ 0.6707594, 49.4210611 ], [ 0.9055258, 49.3728706 ], [ 1.0236059, 49.2628847 ], [ 1.3802145, 49.4473384 ], [ 1.7139305, 49.409225 ], [ 1.7074573, 49.6988079 ], [ 1.7838342, 49.7583096 ], [ 1.6933739, 49.8922474 ], [ 1.3796403, 50.0651205 ], [ 1.0816273, 49.933887299999988 ] ] ] ] } },
{ "type": "Feature", "properties": { "NUTS_ID": "FRE11", "LEVL_CODE": 3, "CNTR_CODE": "FR", "NAME_LATN": "Nord", "NUTS_NAME": "Nord", "MOUNT_TYPE": null, "URBN_TYPE": 1, "COAST_TYPE": 1, "geo": "FRE11" }, "geometry": { "type": "MultiPolygon", "coordinates": [ [ [ [ 2.0677287, 51.0066305 ], [ 2.4359308, 50.6729425 ], [ 2.7904251, 50.6374996 ], [ 2.8366422, 50.542332599999988 ], [ 2.9916756, 50.4746711 ], [ 3.0163266, 50.379361599999989 ], [ 3.1402847, 50.2328127 ], [ 3.0659594, 50.1503049 ], [ 3.0902521, 50.053740499999989 ], [ 3.1729614, 50.0113119 ], [ 3.4370543, 50.0338933 ], [ 3.740718, 50.0598582 ], [ 4.1408531, 49.9787602 ], [ 4.2064941, 50.0759261 ], [ 4.1574695, 50.1698624 ], [ 4.1938515, 50.2501164 ], [ 4.0424939, 50.3398324 ], [ 4.0277744, 50.3583305 ], [ 3.7046567, 50.3264797 ], [ 3.6555101, 50.4617355 ], [ 3.6150814, 50.490399 ], [ 3.4370543, 50.5085396 ], [ 3.3130435, 50.5211762 ], [ 3.1769958, 50.7561646 ], [ 3.0984808, 50.7790191 ], [ 3.0163266, 50.7744829 ], [ 2.8643491, 50.7074929 ], [ 2.6479864, 50.8250138 ], [ 2.6070361, 50.9126894 ], [ 2.5460882, 51.0893883 ], [ 2.0677287, 51.0066305 ] ] ] ] } },
{ "type": "Feature", "properties": { "NUTS_ID": "FRE12", "LEVL_CODE": 3, "CNTR_CODE": "FR", "NAME_LATN": "Pas-de-Calais", "NUTS_NAME": "Pas-de-Calais", "MOUNT_TYPE": null, "URBN_TYPE": 2, "COAST_TYPE": 1, "geo": "FRE12" }, "geometry": { "type": "MultiPolygon", "coordinates": [ [ [ [ 1.5995352, 50.8621491 ], [ 1.5664405, 50.4319114 ], [ 1.6447371, 50.350413 ], [ 1.8286114, 50.3451841 ], [ 2.1191787, 50.2076577 ], [ 2.4397574, 50.2162417 ], [ 2.4167966, 50.1021238 ], [ 2.7383678, 50.1166657 ], [ 2.9020865, 50.0460306 ], [ 3.0163266, 50.0507115 ], [ 3.0902521, 50.053740499999989 ], [ 3.0659594, 50.1503049 ], [ 3.1402847, 50.2328127 ], [ 3.0163266, 50.379361599999989 ], [ 2.9916756, 50.4746711 ], [ 2.8366422, 50.542332599999988 ], [ 2.7904251, 50.6374996 ], [ 2.4359308, 50.6729425 ], [ 2.0677287, 51.0066305 ], [ 1.5995352, 50.8621491 ] ] ] ] } },
{ "type": "Feature", "properties": { "NUTS_ID": "FRE21", "LEVL_CODE": 3, "CNTR_CODE": "FR", "NAME_LATN": "Aisne", "NUTS_NAME": "Aisne", "MOUNT_TYPE": null, "URBN_TYPE": 3, "COAST_TYPE": null, "geo": "FRE21" }, "geometry": { "type": "MultiPolygon", "coordinates": [ [ [ [ 3.740718, 50.0598582 ], [ 3.4370543, 50.0338933 ], [ 3.1729614, 50.0113119 ], [ 3.0885212, 49.8410226 ], [ 3.1184045, 49.7059641 ], [ 3.1004011, 49.4445304 ], [ 3.0095724, 49.292612899999988 ], [ 3.0718801, 49.1175536 ], [ 3.4370543, 48.8828447 ], [ 3.4851835, 48.851910599999989 ], [ 3.6546413, 49.0075307 ], [ 3.670262, 49.314025 ], [ 4.0479747, 49.405644099999989 ], [ 4.0420493, 49.6045424 ], [ 4.2064192, 49.7313942 ], [ 4.2330547, 49.9578306 ], [ 4.1408531, 49.9787602 ], [ 3.740718, 50.0598582 ] ] ] ] } },
{ "type": "Feature", "properties": { "NUTS_ID": "FRE22", "LEVL_CODE": 3, "CNTR_CODE": "FR", "NAME_LATN": "Oise", "NUTS_NAME": "Oise", "MOUNT_TYPE": null, "URBN_TYPE": 2, "COAST_TYPE": null, "geo": "FRE22" }, "geometry": { "type": "MultiPolygon", "coordinates": [ [ [ [ 3.0163266, 49.7001187 ], [ 2.8918447, 49.6929903 ], [ 2.6286781, 49.5907182 ], [ 1.7838342, 49.7583096 ], [ 1.7074573, 49.6988079 ], [ 1.7139305, 49.409225 ], [ 1.7565947, 49.300374399999988 ], [ 1.7043588, 49.2321971 ], [ 1.7881659, 49.1781149 ], [ 2.1159631, 49.198932299999989 ], [ 2.5905286, 49.0796541 ], [ 3.0163266, 49.1131795 ], [ 3.0718801, 49.1175536 ], [ 3.0095724, 49.292612899999988 ], [ 3.1004011, 49.4445304 ], [ 3.1184045, 49.7059641 ], [ 3.0163266, 49.7001187 ] ] ] ] } },
{ "type": "Feature", "properties": { "NUTS_ID": "FRE23", "LEVL_CODE": 3, "CNTR_CODE": "FR", "NAME_LATN": "Somme", "NUTS_NAME": "Somme", "MOUNT_TYPE": null, "URBN_TYPE": 3, "COAST_TYPE": 1, "geo": "FRE23" }, "geometry": { "type": "MultiPolygon", "coordinates": [ [ [ [ 1.5552125, 50.3282659 ], [ 1.5992051, 50.2133404 ], [ 1.3796403, 50.0651205 ], [ 1.6933739, 49.8922474 ], [ 1.7838342, 49.7583096 ], [ 2.6286781, 49.5907182 ], [ 2.8918447, 49.6929903 ], [ 3.0163266, 49.7001187 ], [ 3.1184045, 49.7059641 ], [ 3.0885212, 49.8410226 ], [ 3.1729614, 50.0113119 ], [ 3.0902521, 50.053740499999989 ], [ 3.0163266, 50.0507115 ], [ 2.9020865, 50.0460306 ], [ 2.7383678, 50.1166657 ], [ 2.4167966, 50.1021238 ], [ 2.4397574, 50.2162417 ], [ 2.1191787, 50.2076577 ], [ 1.8286114, 50.3451841 ], [ 1.6447371, 50.350413 ], [ 1.5552125, 50.3282659 ] ] ] ] } },
{ "type": "Feature", "properties": { "NUTS_ID": "FRF11", "LEVL_CODE": 3, "CNTR_CODE": "FR", "NAME_LATN": "Bas-Rhin", "NUTS_NAME": "Bas-Rhin", "MOUNT_TYPE": null, "URBN_TYPE": 2, "COAST_TYPE": null, "geo": "FRF11" }, "geometry": { "type": "MultiPolygon", "coordinates": [ [ [ [ 7.1231633, 48.5135881 ], [ 7.1080193, 48.3801441 ], [ 7.1982871, 48.3104714 ], [ 7.5769817, 48.1190564 ], [ 7.6807129, 48.2572672 ], [ 7.7317751, 48.3801441 ], [ 7.8246221, 48.6114349 ], [ 7.9596303, 48.718581 ], [ 8.2326329, 48.9665714 ], [ 8.06831, 48.9993459 ], [ 7.9106547, 49.0451634 ], [ 7.6356509, 49.0539504 ], [ 7.5324345, 48.945032499999989 ], [ 7.0922539, 49.0311544 ], [ 6.9723621, 48.9350603 ], [ 7.0912746, 48.8241604 ], [ 7.2034719, 48.8299923 ], [ 7.2894132, 48.7672158 ], [ 7.230562, 48.575671 ], [ 7.0813273, 48.5353288 ], [ 7.1231633, 48.5135881 ] ] ] ] } },
{ "type": "Feature", "properties": { "NUTS_ID": "FRF12", "LEVL_CODE": 3, "CNTR_CODE": "FR", "NAME_LATN": "Haut-Rhin", "NUTS_NAME": "Haut-Rhin", "MOUNT_TYPE": null, "URBN_TYPE": 2, "COAST_TYPE": null, "geo": "FRF12" }, "geometry": { "type": "MultiPolygon", "coordinates": [ [ [ [ 6.8461757, 47.8229426 ], [ 7.0178097, 47.7212266 ], [ 7.1303532, 47.503040399999989 ], [ 7.2236152, 47.4301816 ], [ 7.3808939, 47.431892499999989 ], [ 7.5109057, 47.5025826 ], [ 7.5551596, 47.564563799999988 ], [ 7.5890392, 47.589878 ], [ 7.5459904, 47.743574 ], [ 7.6045451, 47.9689129 ], [ 7.5772908, 48.1156551 ], [ 7.5769817, 48.1190564 ], [ 7.1982871, 48.3104714 ], [ 6.8461757, 47.8229426 ] ] ] ] } },
{ "type": "Feature", "properties": { "NUTS_ID": "FRF21", "LEVL_CODE": 3, "CNTR_CODE": "FR", "NAME_LATN": "Ardennes", "NUTS_NAME": "Ardennes", "MOUNT_TYPE": null, "URBN_TYPE": 3, "COAST_TYPE": null, "geo": "FRF21" }, "geometry": { "type": "MultiPolygon", "coordinates": [ [ [ [ 4.2330547, 49.9578306 ], [ 4.2064192, 49.7313942 ], [ 4.0420493, 49.6045424 ], [ 4.0479747, 49.405644099999989 ], [ 4.456327, 49.280874 ], [ 4.9509907, 49.236867499999988 ], [ 5.0962781, 49.4017512 ], [ 5.1091714, 49.568458799999988 ], [ 5.2680237, 49.554382 ], [ 5.3935112, 49.6171109 ], [ 5.1537385, 49.717926 ], [ 4.969431, 49.8018261 ], [ 4.8715628, 49.8109705 ], [ 4.8099508, 49.9748571 ], [ 4.8697416, 50.1288288 ], [ 4.7966971, 50.1486782 ], [ 4.6633902, 49.994970599999988 ], [ 4.4324938, 49.941616 ], [ 4.2330547, 49.9578306 ] ] ] ] } },
{ "type": "Feature", "properties": { "NUTS_ID": "FRF22", "LEVL_CODE": 3, "CNTR_CODE": "FR", "NAME_LATN": "Aube", "NUTS_NAME": "Aube", "MOUNT_TYPE": null, "URBN_TYPE": 2, "COAST_TYPE": null, "geo": "FRF22" }, "geometry": { "type": "MultiPolygon", "coordinates": [ [ [ [ 4.4006358, 48.5676206 ], [ 4.2595898, 48.7095668 ], [ 4.0600996, 48.6890886 ], [ 3.7987761, 48.5232796 ], [ 3.6504635, 48.543189899999987 ], [ 3.555614, 48.6202856 ], [ 3.4370543, 48.5123802 ], [ 3.4052298, 48.4834155 ], [ 3.4137714, 48.3801441 ], [ 3.4370543, 48.3695148 ], [ 3.5703226, 48.3086739 ], [ 3.6406873, 48.17442 ], [ 3.7514662, 48.1441213 ], [ 3.9154927, 47.940981 ], [ 4.2934216, 47.9256735 ], [ 4.7042332, 48.0202349 ], [ 4.854875, 48.1829384 ], [ 4.8380511, 48.3196461 ], [ 4.7581999, 48.3801441 ], [ 4.6711348, 48.4542299 ], [ 4.6701869, 48.531884399999988 ], [ 4.4006358, 48.5676206 ] ] ] ] } },
{ "type": "Feature", "properties": { "NUTS_ID": "FRF23", "LEVL_CODE": 3, "CNTR_CODE": "FR", "NAME_LATN": "Marne", "NUTS_NAME": "Marne", "MOUNT_TYPE": null, "URBN_TYPE": 2, "COAST_TYPE": null, "geo": "FRF23" }, "geometry": { "type": "MultiPolygon", "coordinates": [ [ [ [ 3.670262, 49.314025 ], [ 3.6546413, 49.0075307 ], [ 3.4851835, 48.851910599999989 ], [ 3.4370543, 48.7965995 ], [ 3.4147873, 48.7710098 ], [ 3.4370543, 48.7208631 ], [ 3.4721392, 48.6418495 ], [ 3.555614, 48.6202856 ], [ 3.6504635, 48.543189899999987 ], [ 3.7987761, 48.5232796 ], [ 4.0600996, 48.6890886 ], [ 4.2595898, 48.7095668 ], [ 4.4006358, 48.5676206 ], [ 4.6701869, 48.531884399999988 ], [ 4.9884307, 48.6844219 ], [ 4.905465, 48.8308432 ], [ 5.0274631, 49.0022618 ], [ 4.9509907, 49.236867499999988 ], [ 4.456327, 49.280874 ], [ 4.0479747, 49.405644099999989 ], [ 3.670262, 49.314025 ] ] ] ] } },
{ "type": "Feature", "properties": { "NUTS_ID": "FRF24", "LEVL_CODE": 3, "CNTR_CODE": "FR", "NAME_LATN": "Haute-Marne", "NUTS_NAME": "Haute-Marne", "MOUNT_TYPE": null, "URBN_TYPE": 3, "COAST_TYPE": null, "geo": "FRF24" }, "geometry": { "type": "MultiPolygon", "coordinates": [ [ [ [ 4.6701869, 48.531884399999988 ], [ 4.6711348, 48.4542299 ], [ 4.7581999, 48.3801441 ], [ 4.8380511, 48.3196461 ], [ 4.854875, 48.1829384 ], [ 4.7042332, 48.0202349 ], [ 4.9491084, 47.868226199999988 ], [ 4.975789, 47.7115134 ], [ 5.2656023, 47.590438 ], [ 5.37408, 47.6045379 ], [ 5.4298455, 47.6672938 ], [ 5.6690262, 47.6897941 ], [ 5.7178225, 47.8258377 ], [ 5.8847237, 47.9260464 ], [ 5.6799296, 48.0944491 ], [ 5.6810213, 48.222674799999986 ], [ 5.4358921, 48.3801441 ], [ 5.470055, 48.4209266 ], [ 4.9884307, 48.6844219 ], [ 4.6701869, 48.531884399999988 ] ] ] ] } },
{ "type": "Feature", "properties": { "NUTS_ID": "FRF31", "LEVL_CODE": 3, "CNTR_CODE": "FR", "NAME_LATN": "Meurthe-et-Moselle ", "NUTS_NAME": "Meurthe-et-Moselle ", "MOUNT_TYPE": null, "URBN_TYPE": 2, "COAST_TYPE": null, "geo": "FRF31" }, "geometry": { "type": "MultiPolygon", "coordinates": [ [ [ [ 5.4707165, 49.4973245 ], [ 5.505265, 49.4228343 ], [ 5.7022298, 49.3893658 ], [ 5.838128, 49.0477576 ], [ 5.7510358, 48.7600568 ], [ 5.7651507, 48.4964891 ], [ 6.0397756, 48.352466899999989 ], [ 6.5754371, 48.449704299999986 ], [ 6.8305483, 48.4145827 ], [ 7.1231633, 48.5135881 ], [ 7.0813273, 48.5353288 ], [ 6.3786045, 48.783837899999988 ], [ 6.2801623, 48.9153723 ], [ 6.0629756, 48.9751494 ], [ 5.9505735, 49.0789767 ], [ 6.0152477, 49.2630113 ], [ 5.893386, 49.4969446 ], [ 5.8181169, 49.5463106 ], [ 5.7345269, 49.5457708 ], [ 5.4707165, 49.4973245 ] ] ] ] } },
{ "type": "Feature", "properties": { "NUTS_ID": "FRF32", "LEVL_CODE": 3, "CNTR_CODE": "FR", "NAME_LATN": "Meuse ", "NUTS_NAME": "Meuse ", "MOUNT_TYPE": null, "URBN_TYPE": 3, "COAST_TYPE": null, "geo": "FRF32" }, "geometry": { "type": "MultiPolygon", "coordinates": [ [ [ [ 5.2680237, 49.554382 ], [ 5.1091714, 49.568458799999988 ], [ 5.0962781, 49.4017512 ], [ 4.9509907, 49.236867499999988 ], [ 5.0274631, 49.0022618 ], [ 4.905465, 48.8308432 ], [ 4.9884307, 48.6844219 ], [ 5.470055, 48.4209266 ], [ 5.7651507, 48.4964891 ], [ 5.7510358, 48.7600568 ], [ 5.838128, 49.0477576 ], [ 5.7022298, 49.3893658 ], [ 5.505265, 49.4228343 ], [ 5.4707165, 49.4973245 ], [ 5.3935112, 49.6171109 ], [ 5.2680237, 49.554382 ] ] ] ] } },
{ "type": "Feature", "properties": { "NUTS_ID": "FRF33", "LEVL_CODE": 3, "CNTR_CODE": "FR", "NAME_LATN": "Moselle", "NUTS_NAME": "Moselle", "MOUNT_TYPE": null, "URBN_TYPE": 2, "COAST_TYPE": null, "geo": "FRF33" }, "geometry": { "type": "MultiPolygon", "coordinates": [ [ [ [ 6.0152477, 49.2630113 ], [ 5.9505735, 49.0789767 ], [ 6.0629756, 48.9751494 ], [ 6.2801623, 48.9153723 ], [ 6.3786045, 48.783837899999988 ], [ 7.0813273, 48.5353288 ], [ 7.230562, 48.575671 ], [ 7.2894132, 48.7672158 ], [ 7.2034719, 48.8299923 ], [ 7.0912746, 48.8241604 ], [ 6.9723621, 48.9350603 ], [ 7.0922539, 49.0311544 ], [ 7.5324345, 48.945032499999989 ], [ 7.6356509, 49.0539504 ], [ 7.4787261, 49.1577501 ], [ 7.3687555, 49.1614581 ], [ 7.249932, 49.1179377 ], [ 7.101069, 49.155998 ], [ 6.9307115, 49.2162024 ], [ 6.7793777, 49.1618007 ], [ 6.7234657, 49.2188291 ], [ 6.5569858, 49.4192084 ], [ 6.3671076, 49.469507 ], [ 5.893386, 49.4969446 ], [ 6.0152477, 49.2630113 ] ] ] ] } },
{ "type": "Feature", "properties": { "NUTS_ID": "FRF34", "LEVL_CODE": 3, "CNTR_CODE": "FR", "NAME_LATN": "Vosges", "NUTS_NAME": "Vosges", "MOUNT_TYPE": null, "URBN_TYPE": 3, "COAST_TYPE": null, "geo": "FRF34" }, "geometry": { "type": "MultiPolygon", "coordinates": [ [ [ [ 5.470055, 48.4209266 ], [ 5.4358921, 48.3801441 ], [ 5.6810213, 48.222674799999986 ], [ 5.6799296, 48.0944491 ], [ 5.8847237, 47.9260464 ], [ 6.115305, 48.0109774 ], [ 6.2188549, 47.9425077 ], [ 6.6086361, 47.9268173 ], [ 6.8235336, 47.8130509 ], [ 6.8461757, 47.8229426 ], [ 7.1982871, 48.3104714 ], [ 7.1080193, 48.3801441 ], [ 7.1231633, 48.5135881 ], [ 6.8305483, 48.4145827 ], [ 6.5754371, 48.449704299999986 ], [ 6.0397756, 48.352466899999989 ], [ 5.7651507, 48.4964891 ], [ 5.470055, 48.4209266 ] ] ] ] } },
{ "type": "Feature", "properties": { "NUTS_ID": "FRG01", "LEVL_CODE": 3, "CNTR_CODE": "FR", "NAME_LATN": "Loire-Atlantique", "NUTS_NAME": "Loire-Atlantique", "MOUNT_TYPE": null, "URBN_TYPE": 1, "COAST_TYPE": 1, "geo": "FRG01" }, "geometry": { "type": "MultiPolygon", "coordinates": [ [ [ [ -2.5133041, 47.3681479 ], [ -2.4736749, 47.2957288 ], [ -2.1885364, 47.2541845 ], [ -2.1686616, 47.1403206 ], [ -1.9804646, 47.028722099999989 ], [ -1.6050697, 46.887128 ], [ -1.5145769, 46.9962746 ], [ -1.4108443, 46.966483599999989 ], [ -1.2656046, 47.0518273 ], [ -1.1485669, 47.029549 ], [ -1.2260509, 47.1077118 ], [ -1.1825608, 47.208001499999988 ], [ -1.2819012, 47.3229656 ], [ -1.0791832, 47.3593443 ], [ -0.9994427, 47.373654099999989 ], [ -0.9571779, 47.428596 ], [ -1.0791832, 47.5757093 ], [ -1.2458848, 47.7767174 ], [ -1.4625819, 47.819748399999987 ], [ -1.684348, 47.7118331 ], [ -1.9485363, 47.6603145 ], [ -2.0970339, 47.6313564 ], [ -2.1371732, 47.525726 ], [ -2.4584759, 47.448005 ], [ -2.5133041, 47.3681479 ] ] ] ] } },
{ "type": "Feature", "properties": { "NUTS_ID": "FRG02", "LEVL_CODE": 3, "CNTR_CODE": "FR", "NAME_LATN": "Maine-et-Loire", "NUTS_NAME": "Maine-et-Loire", "MOUNT_TYPE": null, "URBN_TYPE": 2, "COAST_TYPE": null, "geo": "FRG02" }, "geometry": { "type": "MultiPolygon", "coordinates": [ [ [ [ -1.2458848, 47.7767174 ], [ -1.0791832, 47.5757093 ], [ -0.9571779, 47.428596 ], [ -0.9994427, 47.373654099999989 ], [ -1.0791832, 47.3593443 ], [ -1.2819012, 47.3229656 ], [ -1.1825608, 47.208001499999988 ], [ -1.2260509, 47.1077118 ], [ -1.1485669, 47.029549 ], [ -1.0791832, 47.0150212 ], [ -0.9327987, 46.9843707 ], [ -0.891964, 46.9758206 ], [ -0.2899194, 47.0909195 ], [ -0.1021162, 47.0648 ], [ 0.05383, 47.1637336 ], [ 0.216369, 47.5739906 ], [ 0.2300006, 47.608397499999988 ], [ -0.1615362, 47.6573654 ], [ -0.3817008, 47.7605665 ], [ -0.7966022, 47.7621332 ], [ -0.9327987, 47.7768923 ], [ -1.0791832, 47.7927554 ], [ -1.2382479, 47.8099926 ], [ -1.2458848, 47.7767174 ] ] ] ] } },
{ "type": "Feature", "properties": { "NUTS_ID": "FRG03", "LEVL_CODE": 3, "CNTR_CODE": "FR", "NAME_LATN": "Mayenne", "NUTS_NAME": "Mayenne", "MOUNT_TYPE": null, "URBN_TYPE": 3, "COAST_TYPE": null, "geo": "FRG03" }, "geometry": { "type": "MultiPolygon", "coordinates": [ [ [ [ -0.9327987, 48.503887 ], [ -1.0701643, 48.508492 ], [ -1.0527962, 48.1054161 ], [ -1.0386564, 48.0107263 ], [ -1.0791832, 47.9699676 ], [ -1.2382479, 47.8099926 ], [ -1.0791832, 47.7927554 ], [ -0.9327987, 47.7768923 ], [ -0.7966022, 47.7621332 ], [ -0.3817008, 47.7605665 ], [ -0.4041224, 47.8799596 ], [ -0.053214, 48.3801441 ], [ -0.2183448, 48.5386026 ], [ -0.7613197, 48.4708729 ], [ -0.8603599, 48.5014586 ], [ -0.9327987, 48.503887 ] ] ] ] } },
{ "type": "Feature", "properties": { "NUTS_ID": "FRG04", "LEVL_CODE": 3, "CNTR_CODE": "FR", "NAME_LATN": "Sarthe", "NUTS_NAME": "Sarthe", "MOUNT_TYPE": null, "URBN_TYPE": 3, "COAST_TYPE": null, "geo": "FRG04" }, "geometry": { "type": "MultiPolygon", "coordinates": [ [ [ [ 0.7976584, 48.194455 ], [ 0.6707594, 48.2281485 ], [ 0.5399383, 48.2628833 ], [ 0.3790787, 48.3801441 ], [ 0.35487, 48.4441285 ], [ 0.2717862, 48.4789274 ], [ 0.216369, 48.4532621 ], [ -0.053214, 48.3801441 ], [ -0.4041224, 47.8799596 ], [ -0.3817008, 47.7605665 ], [ -0.1615362, 47.6573654 ], [ 0.2300006, 47.608397499999988 ], [ 0.3647229, 47.5838684 ], [ 0.6144323, 47.6942154 ], [ 0.6707594, 47.7604489 ], [ 0.8346123, 47.953119099999981 ], [ 0.8412176, 48.1030595 ], [ 0.7976584, 48.194455 ] ] ] ] } },
{ "type": "Feature", "properties": { "NUTS_ID": "FRG05", "LEVL_CODE": 3, "CNTR_CODE": "FR", "NAME_LATN": "Vendée", "NUTS_NAME": "Vendée", "MOUNT_TYPE": null, "URBN_TYPE": 3, "COAST_TYPE": 1, "geo": "FRG05" }, "geometry": { "type": "MultiPolygon", "coordinates": [ [ [ [ -0.9327987, 46.9843707 ], [ -1.0791832, 47.0150212 ], [ -1.1485669, 47.029549 ], [ -1.2656046, 47.0518273 ], [ -1.4108443, 46.966483599999989 ], [ -1.5145769, 46.9962746 ], [ -1.6050697, 46.887128 ], [ -1.9804646, 47.028722099999989 ], [ -2.1432236, 46.8692237 ], [ -2.0229593, 46.7494261 ], [ -1.9485363, 46.6713959 ], [ -1.7614304, 46.475220899999989 ], [ -1.2341917, 46.2866301 ], [ -1.0791832, 46.3193125 ], [ -0.9327987, 46.3126067 ], [ -0.7504716, 46.3042544 ], [ -0.5633733, 46.3814848 ], [ -0.6531425, 46.6798148 ], [ -0.7966022, 46.8607297 ], [ -0.891964, 46.9758206 ], [ -0.9327987, 46.9843707 ] ] ], [ [ [ -2.3466793, 47.0531094 ], [ -2.3160117, 46.9709107 ], [ -2.2290361, 46.9564576 ], [ -2.2393481, 47.0451159 ], [ -2.3466793, 47.0531094 ] ] ] ] } },
{ "type": "Feature", "properties": { "NUTS_ID": "FRH01", "LEVL_CODE": 3, "CNTR_CODE": "FR", "NAME_LATN": "Côtes-d’Armor", "NUTS_NAME": "Côtes-d’Armor", "MOUNT_TYPE": null, "URBN_TYPE": 3, "COAST_TYPE": 1, "geo": "FRH01" }, "geometry": { "type": "MultiPolygon", "coordinates": [ [ [ [ -2.3671491, 48.6562372 ], [ -2.7077548, 48.5449756 ], [ -3.1392409, 48.8494516 ], [ -3.5125059, 48.807857299999988 ], [ -3.659154, 48.6594239 ], [ -3.5631923, 48.5375941 ], [ -3.5648444, 48.1857475 ], [ -3.3444204, 48.187649799999988 ], [ -3.1392409, 48.1894206 ], [ -3.049291, 48.1901969 ], [ -2.6320372, 48.0566262 ], [ -2.4718669, 48.1507227 ], [ -2.2872742, 48.1337441 ], [ -1.9653932, 48.3366642 ], [ -1.9683712, 48.5372766 ], [ -2.0068708, 48.5660907 ], [ -2.1238269, 48.6048255 ], [ -2.3671491, 48.6562372 ] ] ] ] } },
{ "type": "Feature", "properties": { "NUTS_ID": "FRH02", "LEVL_CODE": 3, "CNTR_CODE": "FR", "NAME_LATN": "Finistère", "NUTS_NAME": "Finistère", "MOUNT_TYPE": null, "URBN_TYPE": 3, "COAST_TYPE": 1, "geo": "FRH02" }, "geometry": { "type": "MultiPolygon", "coordinates": [ [ [ [ -3.4200566, 47.9482796 ], [ -3.6281893, 47.9973793 ], [ -3.7304069, 48.1054161 ], [ -3.5648444, 48.1857475 ], [ -3.5631923, 48.5375941 ], [ -3.659154, 48.6594239 ], [ -4.2463615, 48.6691356 ], [ -4.5916703, 48.5757225 ], [ -4.6960139, 48.4387121 ], [ -4.6130071, 48.3578487 ], [ -4.4251874, 48.3268274 ], [ -4.4787201, 48.2694306 ], [ -4.4314353, 48.153233199999988 ], [ -4.5117809, 48.0290866 ], [ -4.3562729, 47.8846783 ], [ -3.525858, 47.8111567 ], [ -3.4250825, 47.8653728 ], [ -3.4200566, 47.9482796 ] ] ], [ [ [ -4.8358068, 48.080683199999989 ], [ -4.9317479, 48.038762 ], [ -4.8432238, 47.9905804 ], [ -4.7542258, 48.0193235 ], [ -4.8358068, 48.080683199999989 ] ] ] ] } },
{ "type": "Feature", "properties": { "NUTS_ID": "FRH03", "LEVL_CODE": 3, "CNTR_CODE": "FR", "NAME_LATN": "Ille-et-Vilaine", "NUTS_NAME": "Ille-et-Vilaine", "MOUNT_TYPE": null, "URBN_TYPE": 2, "COAST_TYPE": 1, "geo": "FRH03" }, "geometry": { "type": "MultiPolygon", "coordinates": [ [ [ [ -1.7610003, 48.616808899999988 ], [ -1.9485363, 48.6810069 ], [ -2.1238269, 48.6048255 ], [ -2.0068708, 48.5660907 ], [ -1.9908379, 48.5807646 ], [ -1.9722364, 48.5781273 ], [ -1.9628692, 48.5585508 ], [ -1.9683712, 48.5372766 ], [ -1.9653932, 48.3366642 ], [ -2.2872742, 48.1337441 ], [ -2.2554413, 48.1054161 ], [ -2.2703081, 48.0060452 ], [ -2.1227758, 47.9570509 ], [ -2.06134, 47.838922599999989 ], [ -2.1163639, 47.7448378 ], [ -2.0970339, 47.6313564 ], [ -1.9485363, 47.6603145 ], [ -1.684348, 47.7118331 ], [ -1.4625819, 47.819748399999987 ], [ -1.2458848, 47.7767174 ], [ -1.2382479, 47.8099926 ], [ -1.0791832, 47.9699676 ], [ -1.0386564, 48.0107263 ], [ -1.0527962, 48.1054161 ], [ -1.0701643, 48.508492 ], [ -1.4245571, 48.4877915 ], [ -1.5710998, 48.626501 ], [ -1.7610003, 48.616808899999988 ] ] ] ] } },
{ "type": "Feature", "properties": { "NUTS_ID": "FRH04", "LEVL_CODE": 3, "CNTR_CODE": "FR", "NAME_LATN": "Morbihan", "NUTS_NAME": "Morbihan", "MOUNT_TYPE": null, "URBN_TYPE": 3, "COAST_TYPE": 1, "geo": "FRH04" }, "geometry": { "type": "MultiPolygon", "coordinates": [ [ [ [ -3.1392409, 48.1894206 ], [ -3.3444204, 48.187649799999988 ], [ -3.5648444, 48.1857475 ], [ -3.7304069, 48.1054161 ], [ -3.6281893, 47.9973793 ], [ -3.4200566, 47.9482796 ], [ -3.4250825, 47.8653728 ], [ -3.525858, 47.8111567 ], [ -3.4292739, 47.7182513 ], [ -3.1392409, 47.6069082 ], [ -2.7193083, 47.5124462 ], [ -2.5634691, 47.5306495 ], [ -2.4584759, 47.448005 ], [ -2.1371732, 47.525726 ], [ -2.0970339, 47.6313564 ], [ -2.1163639, 47.7448378 ], [ -2.06134, 47.838922599999989 ], [ -2.1227758, 47.9570509 ], [ -2.2703081, 48.0060452 ], [ -2.2554413, 48.1054161 ], [ -2.2872742, 48.1337441 ], [ -2.4718669, 48.1507227 ], [ -2.6320372, 48.0566262 ], [ -3.049291, 48.1901969 ], [ -3.1392409, 48.1894206 ] ] ], [ [ [ -3.1874758, 47.3800238 ], [ -3.3031988, 47.3666341 ], [ -3.2161289, 47.2912933 ], [ -3.1370228, 47.3018536 ], [ -3.1874758, 47.3800238 ] ] ] ] } },
{ "type": "Feature", "properties": { "NUTS_ID": "FRI11", "LEVL_CODE": 3, "CNTR_CODE": "FR", "NAME_LATN": "Dordogne", "NUTS_NAME": "Dordogne", "MOUNT_TYPE": null, "URBN_TYPE": 3, "COAST_TYPE": null, "geo": "FRI11" }, "geometry": { "type": "MultiPolygon", "coordinates": [ [ [ [ -0.0401976, 45.10238 ], [ 0.0490814, 45.0583785 ], [ 0.047563, 44.8557436 ], [ 0.2067247, 44.8340308 ], [ 0.2973267, 44.7622874 ], [ 0.3998809, 44.6559785 ], [ 0.6342919, 44.6909391 ], [ 0.6707594, 44.6815409 ], [ 1.0751419, 44.5773255 ], [ 1.394294, 44.8563299 ], [ 1.4482598, 45.0193139 ], [ 1.271491, 45.1710817 ], [ 1.2482947, 45.2833487 ], [ 1.3031157, 45.3796733 ], [ 1.2531544, 45.44422 ], [ 1.0133756, 45.59897 ], [ 0.7960414, 45.5951307 ], [ 0.6707594, 45.68511 ], [ 0.6297411, 45.7145698 ], [ 0.2959313, 45.420181 ], [ 0.216369, 45.2760497 ], [ 0.004336, 45.1916279 ], [ -0.0401976, 45.10238 ] ] ] ] } },
{ "type": "Feature", "properties": { "NUTS_ID": "FRI12", "LEVL_CODE": 3, "CNTR_CODE": "FR", "NAME_LATN": "Gironde", "NUTS_NAME": "Gironde", "MOUNT_TYPE": null, "URBN_TYPE": 1, "COAST_TYPE": 1, "geo": "FRI12" }, "geometry": { "type": "MultiPolygon", "coordinates": [ [ [ [ -0.7937867, 45.328431 ], [ -0.9327987, 45.4205725 ], [ -1.0791832, 45.5176006 ], [ -1.1307205, 45.4876077 ], [ -1.2302772, 44.7952704 ], [ -1.1140763, 44.684692899999988 ], [ -1.2540859, 44.4676385 ], [ -1.0791832, 44.5138107 ], [ -0.9327987, 44.4426455 ], [ -0.6594961, 44.4197595 ], [ -0.344105, 44.2319821 ], [ -0.14069, 44.2264075 ], [ -0.0578106, 44.2730495 ], [ 0.0003263, 44.5049698 ], [ 0.1367399, 44.6199556 ], [ 0.1583612, 44.7273023 ], [ 0.216369, 44.741906 ], [ 0.2973267, 44.7622874 ], [ 0.2067247, 44.8340308 ], [ 0.047563, 44.8557436 ], [ 0.0490814, 45.0583785 ], [ -0.0401976, 45.10238 ], [ -0.2400032, 45.1135695 ], [ -0.451898, 45.2738668 ], [ -0.7148253, 45.32837 ], [ -0.7937867, 45.328431 ] ] ] ] } },
{ "type": "Feature", "properties": { "NUTS_ID": "FRI13", "LEVL_CODE": 3, "CNTR_CODE": "FR", "NAME_LATN": "Landes", "NUTS_NAME": "Landes", "MOUNT_TYPE": null, "URBN_TYPE": 3, "COAST_TYPE": 1, "geo": "FRI13" }, "geometry": { "type": "MultiPolygon", "coordinates": [ [ [ [ -1.3382106, 44.1011985 ], [ -1.4404121, 43.6560176 ], [ -1.5247571, 43.529595099999987 ], [ -1.0791832, 43.5103342 ], [ -1.0260432, 43.5080371 ], [ -0.9327987, 43.529105699999988 ], [ -0.7966022, 43.5598793 ], [ -0.242833, 43.5849791 ], [ -0.1901208, 43.8981163 ], [ -0.0487073, 43.9619016 ], [ 0.0487817, 43.9251751 ], [ 0.0760437, 43.9831385 ], [ 0.0795928, 44.1212583 ], [ -0.1046165, 44.1589519 ], [ -0.14069, 44.2264075 ], [ -0.344105, 44.2319821 ], [ -0.6594961, 44.4197595 ], [ -0.9327987, 44.4426455 ], [ -1.0791832, 44.5138107 ], [ -1.2540859, 44.4676385 ], [ -1.3382106, 44.1011985 ] ] ] ] } },
{ "type": "Feature", "properties": { "NUTS_ID": "FRI14", "LEVL_CODE": 3, "CNTR_CODE": "FR", "NAME_LATN": "Lot-et-Garonne", "NUTS_NAME": "Lot-et-Garonne", "MOUNT_TYPE": null, "URBN_TYPE": 3, "COAST_TYPE": null, "geo": "FRI14" }, "geometry": { "type": "MultiPolygon", "coordinates": [ [ [ [ 0.216369, 44.741906 ], [ 0.1583612, 44.7273023 ], [ 0.1367399, 44.6199556 ], [ 0.0003263, 44.5049698 ], [ -0.0578106, 44.2730495 ], [ -0.14069, 44.2264075 ], [ -0.1046165, 44.1589519 ], [ 0.0795928, 44.1212583 ], [ 0.0760437, 43.9831385 ], [ 0.216369, 44.0004326 ], [ 0.6707594, 44.0564332 ], [ 0.7418849, 44.065199 ], [ 0.8907203, 44.1667491 ], [ 0.9311051, 44.2622989 ], [ 0.8951229, 44.3549578 ], [ 1.0640813, 44.3785085 ], [ 1.0227401, 44.5133661 ], [ 1.0751419, 44.5773255 ], [ 0.6707594, 44.6815409 ], [ 0.6342919, 44.6909391 ], [ 0.3998809, 44.6559785 ], [ 0.2973267, 44.7622874 ], [ 0.216369, 44.741906 ] ] ] ] } },
{ "type": "Feature", "properties": { "NUTS_ID": "FRI15", "LEVL_CODE": 3, "CNTR_CODE": "FR", "NAME_LATN": "Pyrénées-Atlantiques", "NUTS_NAME": "Pyrénées-Atlantiques", "MOUNT_TYPE": null, "URBN_TYPE": 2, "COAST_TYPE": 1, "geo": "FRI15" }, "geometry": { "type": "MultiPolygon", "coordinates": [ [ [ [ -1.7455232, 43.3783094 ], [ -1.7859814, 43.3505843 ], [ -1.728903, 43.296089 ], [ -1.4368386, 43.2512676 ], [ -1.4028966, 43.0640713 ], [ -0.9303069, 42.9892056 ], [ -0.7966022, 42.9585362 ], [ -0.754235, 42.9602696 ], [ -0.7245012, 42.9201587 ], [ -0.656194, 42.8593531 ], [ -0.5515181, 42.7962076 ], [ -0.313342, 42.8493649 ], [ -0.2694879, 42.9892056 ], [ -0.0992829, 43.1833443 ], [ -0.1351297, 43.2793206 ], [ -0.0230353, 43.3515738 ], [ -0.0967882, 43.5824051 ], [ -0.242833, 43.5849791 ], [ -0.7966022, 43.5598793 ], [ -0.9327987, 43.529105699999988 ], [ -1.0260432, 43.5080371 ], [ -1.0791832, 43.5103342 ], [ -1.5247571, 43.529595099999987 ], [ -1.7455232, 43.3783094 ] ] ] ] } },
{ "type": "Feature", "properties": { "NUTS_ID": "FRI21", "LEVL_CODE": 3, "CNTR_CODE": "FR", "NAME_LATN": "Corrèze", "NUTS_NAME": "Corrèze", "MOUNT_TYPE": null, "URBN_TYPE": 3, "COAST_TYPE": null, "geo": "FRI21" }, "geometry": { "type": "MultiPolygon", "coordinates": [ [ [ [ 1.3031157, 45.3796733 ], [ 1.2482947, 45.2833487 ], [ 1.271491, 45.1710817 ], [ 1.4482598, 45.0193139 ], [ 1.6105882, 45.0315511 ], [ 1.7791372, 44.9378338 ], [ 2.0629079, 44.9765043 ], [ 2.2183377, 45.234266 ], [ 2.3928818, 45.3875317 ], [ 2.4752109, 45.3969735 ], [ 2.5084126, 45.4785013 ], [ 2.4921294, 45.7376699 ], [ 2.306191, 45.683777899999988 ], [ 2.0369239, 45.7498359 ], [ 1.8987319, 45.6982764 ], [ 1.2531544, 45.44422 ], [ 1.3031157, 45.3796733 ] ] ] ] } },
{ "type": "Feature", "properties": { "NUTS_ID": "FRI22", "LEVL_CODE": 3, "CNTR_CODE": "FR", "NAME_LATN": "Creuse", "NUTS_NAME": "Creuse", "MOUNT_TYPE": null, "URBN_TYPE": 3, "COAST_TYPE": null, "geo": "FRI22" }, "geometry": { "type": "MultiPolygon", "coordinates": [ [ [ [ 1.3978536, 46.2136123 ], [ 1.5214232, 46.100213499999988 ], [ 1.5559499, 45.9382106 ], [ 1.6537799, 45.8463646 ], [ 1.8506521, 45.8068351 ], [ 1.8987319, 45.6982764 ], [ 2.0369239, 45.7498359 ], [ 2.306191, 45.683777899999988 ], [ 2.4921294, 45.7376699 ], [ 2.4307256, 45.8139743 ], [ 2.5949171, 45.9810142 ], [ 2.5653723, 46.143036 ], [ 2.2810435, 46.4204035 ], [ 2.1677844, 46.4240691 ], [ 1.7962795, 46.4367775 ], [ 1.4151853, 46.3472148 ], [ 1.3978536, 46.2136123 ] ] ] ] } },
{ "type": "Feature", "properties": { "NUTS_ID": "FRI23", "LEVL_CODE": 3, "CNTR_CODE": "FR", "NAME_LATN": "Haute-Vienne", "NUTS_NAME": "Haute-Vienne", "MOUNT_TYPE": null, "URBN_TYPE": 3, "COAST_TYPE": null, "geo": "FRI23" }, "geometry": { "type": "MultiPolygon", "coordinates": [ [ [ [ 0.9224127, 45.9594209 ], [ 0.6707594, 45.748886 ], [ 0.6297411, 45.7145698 ], [ 0.6707594, 45.68511 ], [ 0.7960414, 45.5951307 ], [ 1.0133756, 45.59897 ], [ 1.2531544, 45.44422 ], [ 1.8987319, 45.6982764 ], [ 1.8506521, 45.8068351 ], [ 1.6537799, 45.8463646 ], [ 1.5559499, 45.9382106 ], [ 1.5214232, 46.100213499999988 ], [ 1.3978536, 46.2136123 ], [ 1.4151853, 46.3472148 ], [ 1.177279, 46.3839481 ], [ 0.8695653, 46.2597576 ], [ 0.8234325, 46.1285844 ], [ 0.9224127, 45.9594209 ] ] ] ] } },
{ "type": "Feature", "properties": { "NUTS_ID": "FRI31", "LEVL_CODE": 3, "CNTR_CODE": "FR", "NAME_LATN": "Charente", "NUTS_NAME": "Charente", "MOUNT_TYPE": null, "URBN_TYPE": 3, "COAST_TYPE": null, "geo": "FRI31" }, "geometry": { "type": "MultiPolygon", "coordinates": [ [ [ [ -0.1458835, 45.8131929 ], [ -0.3754457, 45.7836172 ], [ -0.4151619, 45.6798044 ], [ -0.2667291, 45.5015135 ], [ -0.2755492, 45.3303577 ], [ 0.004336, 45.1916279 ], [ 0.216369, 45.2760497 ], [ 0.2959313, 45.420181 ], [ 0.6297411, 45.7145698 ], [ 0.6707594, 45.748886 ], [ 0.9224127, 45.9594209 ], [ 0.8234325, 46.1285844 ], [ 0.6707594, 46.106333199999987 ], [ 0.3858318, 46.0648067 ], [ 0.1973547, 46.0955531 ], [ 0.0108245, 46.0700611 ], [ -0.1029383, 45.9696614 ], [ -0.1458835, 45.8131929 ] ] ] ] } },
{ "type": "Feature", "properties": { "NUTS_ID": "FRI32", "LEVL_CODE": 3, "CNTR_CODE": "FR", "NAME_LATN": "Charente-Maritime", "NUTS_NAME": "Charente-Maritime", "MOUNT_TYPE": null, "URBN_TYPE": 3, "COAST_TYPE": 1, "geo": "FRI32" }, "geometry": { "type": "MultiPolygon", "coordinates": [ [ [ [ -0.6802472, 46.1836416 ], [ -0.7504716, 46.3042544 ], [ -0.9327987, 46.3126067 ], [ -1.0791832, 46.3193125 ], [ -1.1863707, 46.1755045 ], [ -1.0902529, 46.0319784 ], [ -1.1266946, 45.8657563 ], [ -1.1846107, 45.8373974 ], [ -1.2912986, 45.9888419 ], [ -1.3625322, 45.9695422 ], [ -1.2009164, 45.6953129 ], [ -0.9327987, 45.5445558 ], [ -0.7966022, 45.471370799999988 ], [ -0.7148253, 45.32837 ], [ -0.451898, 45.2738668 ], [ -0.2400032, 45.1135695 ], [ -0.0401976, 45.10238 ], [ 0.004336, 45.1916279 ], [ -0.2755492, 45.3303577 ], [ -0.2667291, 45.5015135 ], [ -0.4151619, 45.6798044 ], [ -0.3754457, 45.7836172 ], [ -0.1458835, 45.8131929 ], [ -0.1029383, 45.9696614 ], [ -0.6802472, 46.1836416 ] ] ], [ [ [ -1.2919324, 46.2168198 ], [ -1.4003489, 46.1664372 ], [ -1.3041373, 46.1263789 ], [ -1.2206083, 46.1759816 ], [ -1.2919324, 46.2168198 ] ] ] ] } },
{ "type": "Feature", "properties": { "NUTS_ID": "FRI33", "LEVL_CODE": 3, "CNTR_CODE": "FR", "NAME_LATN": "Deux-Sèvres", "NUTS_NAME": "Deux-Sèvres", "MOUNT_TYPE": null, "URBN_TYPE": 3, "COAST_TYPE": null, "geo": "FRI33" }, "geometry": { "type": "MultiPolygon", "coordinates": [ [ [ [ -0.7966022, 46.8607297 ], [ -0.6531425, 46.6798148 ], [ -0.5633733, 46.3814848 ], [ -0.7504716, 46.3042544 ], [ -0.6802472, 46.1836416 ], [ -0.1029383, 45.9696614 ], [ 0.0108245, 46.0700611 ], [ 0.1973547, 46.0955531 ], [ 0.1286794, 46.1913481 ], [ 0.1591729, 46.3213903 ], [ 0.0697537, 46.330567599999988 ], [ -0.0248874, 46.431945 ], [ 0.0148073, 46.7336684 ], [ -0.1021162, 47.0648 ], [ -0.2899194, 47.0909195 ], [ -0.891964, 46.9758206 ], [ -0.7966022, 46.8607297 ] ] ] ] } },
{ "type": "Feature", "properties": { "NUTS_ID": "FRI34", "LEVL_CODE": 3, "CNTR_CODE": "FR", "NAME_LATN": "Vienne", "NUTS_NAME": "Vienne", "MOUNT_TYPE": null, "URBN_TYPE": 3, "COAST_TYPE": null, "geo": "FRI34" }, "geometry": { "type": "MultiPolygon", "coordinates": [ [ [ [ -0.1021162, 47.0648 ], [ 0.0148073, 46.7336684 ], [ -0.0248874, 46.431945 ], [ 0.0697537, 46.330567599999988 ], [ 0.1591729, 46.3213903 ], [ 0.1286794, 46.1913481 ], [ 0.1973547, 46.0955531 ], [ 0.3858318, 46.0648067 ], [ 0.6707594, 46.106333199999987 ], [ 0.8234325, 46.1285844 ], [ 0.8695653, 46.2597576 ], [ 1.177279, 46.3839481 ], [ 1.135575, 46.4939339 ], [ 0.9349789, 46.5954645 ], [ 0.8674692, 46.7482164 ], [ 0.6707594, 46.9678572 ], [ 0.3687903, 46.9476089 ], [ 0.05383, 47.1637336 ], [ -0.1021162, 47.0648 ] ] ] ] } },
{ "type": "Feature", "properties": { "NUTS_ID": "FRJ11", "LEVL_CODE": 3, "CNTR_CODE": "FR", "NAME_LATN": "Aude", "NUTS_NAME": "Aude", "MOUNT_TYPE": null, "URBN_TYPE": 3, "COAST_TYPE": 1, "geo": "FRJ11" }, "geometry": { "type": "MultiPolygon", "coordinates": [ [ [ [ 3.0842124, 43.0435879 ], [ 3.2405162, 43.2128675 ], [ 3.0163266, 43.2960405 ], [ 2.9358309, 43.325904 ], [ 2.6489684, 43.285005299999987 ], [ 2.5627401, 43.3365119 ], [ 2.5656592, 43.4229359 ], [ 2.0291338, 43.4368954 ], [ 1.8613001, 43.4246031 ], [ 1.6884236, 43.2735545 ], [ 1.7354557, 43.1869165 ], [ 1.9547237, 43.0944453 ], [ 1.9546436, 42.9892056 ], [ 1.9545448, 42.8593531 ], [ 1.8844694, 42.8200587 ], [ 1.9086015, 42.7776117 ], [ 1.9787347, 42.7466394 ], [ 2.1660488, 42.6639176 ], [ 2.2965264, 42.7466394 ], [ 2.4482209, 42.8428126 ], [ 2.8506914, 42.8975978 ], [ 3.0477121, 42.8593531 ], [ 3.0842124, 43.0435879 ] ] ] ] } },
{ "type": "Feature", "properties": { "NUTS_ID": "FRJ12", "LEVL_CODE": 3, "CNTR_CODE": "FR", "NAME_LATN": "Gard", "NUTS_NAME": "Gard", "MOUNT_TYPE": null, "URBN_TYPE": 2, "COAST_TYPE": 1, "geo": "FRJ12" }, "geometry": { "type": "MultiPolygon", "coordinates": [ [ [ [ 4.2302804, 43.4601835 ], [ 4.4898715, 43.6828561 ], [ 4.6209803, 43.7064036 ], [ 4.7390597, 43.9240618 ], [ 4.7971218, 44.0209056 ], [ 4.6492274, 44.2703601 ], [ 4.5103273, 44.3301239 ], [ 4.2022162, 44.284441 ], [ 4.0848575, 44.3323315 ], [ 3.9981615, 44.4597984 ], [ 3.9114394, 44.3850579 ], [ 3.9412944, 44.2290624 ], [ 3.8648125, 44.1366386 ], [ 3.691525, 44.1673725 ], [ 3.5356847, 44.1220622 ], [ 3.4370543, 44.1517039 ], [ 3.373648, 44.170759600000011 ], [ 3.3367404, 44.0853393 ], [ 3.4257873, 44.0130833 ], [ 3.3583621, 43.9138296 ], [ 3.4370543, 43.899037799999988 ], [ 3.5615397, 43.875638099999989 ], [ 3.7696495, 43.9591077 ], [ 4.1480556, 43.7197812 ], [ 4.1743434, 43.6435481 ], [ 4.1010837, 43.5547054 ], [ 4.2302804, 43.4601835 ] ] ] ] } },
{ "type": "Feature", "properties": { "NUTS_ID": "FRJ13", "LEVL_CODE": 3, "CNTR_CODE": "FR", "NAME_LATN": "Hérault", "NUTS_NAME": "Hérault", "MOUNT_TYPE": null, "URBN_TYPE": 2, "COAST_TYPE": 1, "geo": "FRJ13" }, "geometry": { "type": "MultiPolygon", "coordinates": [ [ [ [ 3.4370543, 43.2909371 ], [ 4.1010837, 43.5547054 ], [ 4.1743434, 43.6435481 ], [ 4.1480556, 43.7197812 ], [ 3.7696495, 43.9591077 ], [ 3.5615397, 43.875638099999989 ], [ 3.4370543, 43.899037799999988 ], [ 3.3583621, 43.9138296 ], [ 3.1032936, 43.8221375 ], [ 3.0163266, 43.7045824 ], [ 2.935457, 43.6946649 ], [ 2.7927032, 43.6270514 ], [ 2.6491821, 43.6380009 ], [ 2.6451831, 43.470158 ], [ 2.5656592, 43.4229359 ], [ 2.5627401, 43.3365119 ], [ 2.6489684, 43.285005299999987 ], [ 2.9358309, 43.325904 ], [ 3.0163266, 43.2960405 ], [ 3.2405162, 43.2128675 ], [ 3.4370543, 43.2909371 ] ] ] ] } },
{ "type": "Feature", "properties": { "NUTS_ID": "FRJ14", "LEVL_CODE": 3, "CNTR_CODE": "FR", "NAME_LATN": "Lozère", "NUTS_NAME": "Lozère", "MOUNT_TYPE": 1, "URBN_TYPE": 3, "COAST_TYPE": null, "geo": "FRJ14" }, "geometry": { "type": "MultiPolygon", "coordinates": [ [ [ [ 3.4370543, 44.1517039 ], [ 3.5356847, 44.1220622 ], [ 3.691525, 44.1673725 ], [ 3.8648125, 44.1366386 ], [ 3.9412944, 44.2290624 ], [ 3.9114394, 44.3850579 ], [ 3.9981615, 44.4597984 ], [ 3.862531, 44.7438659 ], [ 3.6324568, 44.8665889 ], [ 3.4736461, 44.8382226 ], [ 3.4370543, 44.8816203 ], [ 3.3613477, 44.9714081 ], [ 3.0983381, 44.8601106 ], [ 3.0163266, 44.7086618 ], [ 2.9816757, 44.6446729 ], [ 3.0163266, 44.5972121 ], [ 3.1182377, 44.4576259 ], [ 3.1687012, 44.252365499999989 ], [ 3.373648, 44.170759600000011 ], [ 3.4370543, 44.1517039 ] ] ] ] } },
{ "type": "Feature", "properties": { "NUTS_ID": "FRJ15", "LEVL_CODE": 3, "CNTR_CODE": "FR", "NAME_LATN": "Pyrénées-Orientales", "NUTS_NAME": "Pyrénées-Orientales", "MOUNT_TYPE": 1, "URBN_TYPE": 2, "COAST_TYPE": 1, "geo": "FRJ15" }, "geometry": { "type": "MultiPolygon", "coordinates": [ [ [ [ 1.9215692, 42.451685 ], [ 2.0400461, 42.3615916 ], [ 2.240354, 42.4321301 ], [ 2.5472071, 42.343257099999988 ], [ 2.8844346, 42.4607135 ], [ 3.0163266, 42.4491113 ], [ 3.1740224, 42.4352391 ], [ 3.047538, 42.5847065 ], [ 3.0476406, 42.7466394 ], [ 3.0477121, 42.8593531 ], [ 2.8506914, 42.8975978 ], [ 2.4482209, 42.8428126 ], [ 2.2965264, 42.7466394 ], [ 2.1660488, 42.6639176 ], [ 1.7860987, 42.5736581 ], [ 1.7258012, 42.504402 ], [ 1.7310109, 42.4924008 ], [ 1.9215692, 42.451685 ] ] ] ] } },
{ "type": "Feature", "properties": { "NUTS_ID": "FRJ21", "LEVL_CODE": 3, "CNTR_CODE": "FR", "NAME_LATN": "Ariège", "NUTS_NAME": "Ariège", "MOUNT_TYPE": 1, "URBN_TYPE": 3, "COAST_TYPE": null, "geo": "FRJ21" }, "geometry": { "type": "MultiPolygon", "coordinates": [ [ [ [ 1.4895376, 43.2361227 ], [ 1.3551844, 43.2731984 ], [ 1.2591674, 43.1260647 ], [ 1.0588828, 43.1166156 ], [ 0.9318616, 42.9892056 ], [ 0.8687218, 42.9258724 ], [ 0.8582151, 42.8257412 ], [ 1.1894169, 42.7466394 ], [ 1.3460864, 42.7092217 ], [ 1.4425662, 42.6036679 ], [ 1.538227, 42.6411964 ], [ 1.7860987, 42.5736581 ], [ 2.1660488, 42.6639176 ], [ 1.9787347, 42.7466394 ], [ 1.9086015, 42.7776117 ], [ 1.8844694, 42.8200587 ], [ 1.9545448, 42.8593531 ], [ 1.9546436, 42.9892056 ], [ 1.9547237, 43.0944453 ], [ 1.7354557, 43.1869165 ], [ 1.6884236, 43.2735545 ], [ 1.4895376, 43.2361227 ] ] ] ] } },
{ "type": "Feature", "properties": { "NUTS_ID": "FRJ22", "LEVL_CODE": 3, "CNTR_CODE": "FR", "NAME_LATN": "Aveyron", "NUTS_NAME": "Aveyron", "MOUNT_TYPE": 1, "URBN_TYPE": 3, "COAST_TYPE": null, "geo": "FRJ22" }, "geometry": { "type": "MultiPolygon", "coordinates": [ [ [ [ 1.8700075, 44.4815194 ], [ 1.8820781, 44.340069 ], [ 1.9901719, 44.1494499 ], [ 2.1334205, 44.186393 ], [ 2.3875074, 44.0850801 ], [ 2.6608045, 43.7645397 ], [ 2.935457, 43.6946649 ], [ 3.0163266, 43.7045824 ], [ 3.1032936, 43.8221375 ], [ 3.3583621, 43.9138296 ], [ 3.4257873, 44.0130833 ], [ 3.3367404, 44.0853393 ], [ 3.373648, 44.170759600000011 ], [ 3.1687012, 44.252365499999989 ], [ 3.1182377, 44.4576259 ], [ 3.0163266, 44.5972121 ], [ 2.9816757, 44.6446729 ], [ 2.8600291, 44.8544944 ], [ 2.7273188, 44.9216782 ], [ 2.4914584, 44.668556 ], [ 2.2074729, 44.615529 ], [ 1.8700075, 44.4815194 ] ] ] ] } },
{ "type": "Feature", "properties": { "NUTS_ID": "FRJ23", "LEVL_CODE": 3, "CNTR_CODE": "FR", "NAME_LATN": "Haute-Garonne", "NUTS_NAME": "Haute-Garonne", "MOUNT_TYPE": null, "URBN_TYPE": 1, "COAST_TYPE": null, "geo": "FRJ23" }, "geometry": { "type": "MultiPolygon", "coordinates": [ [ [ [ 1.1747472, 43.5707496 ], [ 0.9843468, 43.385898 ], [ 0.7754135, 43.4109007 ], [ 0.6707594, 43.3488201 ], [ 0.6068073, 43.3108839 ], [ 0.4656623, 43.1333207 ], [ 0.5924661, 42.9892056 ], [ 0.627465, 42.9494286 ], [ 0.4726745, 42.8593531 ], [ 0.4762091, 42.7466394 ], [ 0.4776701, 42.7000474 ], [ 0.6707594, 42.6796867 ], [ 0.6803408, 42.7466394 ], [ 0.7154843, 42.8434563 ], [ 0.8582151, 42.8257412 ], [ 0.8687218, 42.9258724 ], [ 0.9318616, 42.9892056 ], [ 1.0588828, 43.1166156 ], [ 1.2591674, 43.1260647 ], [ 1.3551844, 43.2731984 ], [ 1.4895376, 43.2361227 ], [ 1.6884236, 43.2735545 ], [ 1.8613001, 43.4246031 ], [ 2.0291338, 43.4368954 ], [ 1.7274858, 43.6302734 ], [ 1.555622, 43.9183171 ], [ 1.2552841, 43.7844608 ], [ 0.9539832, 43.7873701 ], [ 1.1747472, 43.5707496 ] ] ] ] } },
{ "type": "Feature", "properties": { "NUTS_ID": "FRJ24", "LEVL_CODE": 3, "CNTR_CODE": "FR", "NAME_LATN": "Gers", "NUTS_NAME": "Gers", "MOUNT_TYPE": null, "URBN_TYPE": 3, "COAST_TYPE": null, "geo": "FRJ24" }, "geometry": { "type": "MultiPolygon", "coordinates": [ [ [ [ 0.0487817, 43.9251751 ], [ -0.0487073, 43.9619016 ], [ -0.1901208, 43.8981163 ], [ -0.242833, 43.5849791 ], [ -0.0967882, 43.5824051 ], [ 0.0013105, 43.5742488 ], [ 0.1740452, 43.3963049 ], [ 0.216369, 43.3789849 ], [ 0.6068073, 43.3108839 ], [ 0.6707594, 43.3488201 ], [ 0.7754135, 43.4109007 ], [ 0.9843468, 43.385898 ], [ 1.1747472, 43.5707496 ], [ 0.9539832, 43.7873701 ], [ 0.7418849, 44.065199 ], [ 0.6707594, 44.0564332 ], [ 0.216369, 44.0004326 ], [ 0.0760437, 43.9831385 ], [ 0.0487817, 43.9251751 ] ] ] ] } },
{ "type": "Feature", "properties": { "NUTS_ID": "FRJ25", "LEVL_CODE": 3, "CNTR_CODE": "FR", "NAME_LATN": "Lot", "NUTS_NAME": "Lot", "MOUNT_TYPE": null, "URBN_TYPE": 3, "COAST_TYPE": null, "geo": "FRJ25" }, "geometry": { "type": "MultiPolygon", "coordinates": [ [ [ [ 1.394294, 44.8563299 ], [ 1.0751419, 44.5773255 ], [ 1.0227401, 44.5133661 ], [ 1.0640813, 44.3785085 ], [ 1.3651842, 44.219711 ], [ 1.8820781, 44.340069 ], [ 1.8700075, 44.4815194 ], [ 2.2074729, 44.615529 ], [ 2.0629079, 44.9765043 ], [ 1.7791372, 44.9378338 ], [ 1.6105882, 45.0315511 ], [ 1.4482598, 45.0193139 ], [ 1.394294, 44.8563299 ] ] ] ] } },
{ "type": "Feature", "properties": { "NUTS_ID": "FRJ26", "LEVL_CODE": 3, "CNTR_CODE": "FR", "NAME_LATN": "Hautes-Pyrénées ", "NUTS_NAME": "Hautes-Pyrénées ", "MOUNT_TYPE": 1, "URBN_TYPE": 3, "COAST_TYPE": null, "geo": "FRJ26" }, "geometry": { "type": "MultiPolygon", "coordinates": [ [ [ [ -0.0230353, 43.3515738 ], [ -0.1351297, 43.2793206 ], [ -0.0992829, 43.1833443 ], [ -0.2694879, 42.9892056 ], [ -0.313342, 42.8493649 ], [ -0.1204333, 42.7466394 ], [ 0.0108164, 42.6970236 ], [ 0.4776701, 42.7000474 ], [ 0.4762091, 42.7466394 ], [ 0.4726745, 42.8593531 ], [ 0.627465, 42.9494286 ], [ 0.5924661, 42.9892056 ], [ 0.4656623, 43.1333207 ], [ 0.6068073, 43.3108839 ], [ 0.216369, 43.3789849 ], [ 0.1740452, 43.3963049 ], [ 0.0013105, 43.5742488 ], [ -0.0967882, 43.5824051 ], [ -0.0230353, 43.3515738 ] ] ] ] } },
{ "type": "Feature", "properties": { "NUTS_ID": "FRJ27", "LEVL_CODE": 3, "CNTR_CODE": "FR", "NAME_LATN": "Tarn", "NUTS_NAME": "Tarn", "MOUNT_TYPE": null, "URBN_TYPE": 3, "COAST_TYPE": null, "geo": "FRJ27" }, "geometry": { "type": "MultiPolygon", "coordinates": [ [ [ [ 1.7020896, 44.0987825 ], [ 1.555622, 43.9183171 ], [ 1.7274858, 43.6302734 ], [ 2.0291338, 43.4368954 ], [ 2.5656592, 43.4229359 ], [ 2.6451831, 43.470158 ], [ 2.6491821, 43.6380009 ], [ 2.7927032, 43.6270514 ], [ 2.935457, 43.6946649 ], [ 2.6608045, 43.7645397 ], [ 2.3875074, 44.0850801 ], [ 2.1334205, 44.186393 ], [ 1.9901719, 44.1494499 ], [ 1.7020896, 44.0987825 ] ] ] ] } },
{ "type": "Feature", "properties": { "NUTS_ID": "FRJ28", "LEVL_CODE": 3, "CNTR_CODE": "FR", "NAME_LATN": "Tarn-et-Garonne", "NUTS_NAME": "Tarn-et-Garonne", "MOUNT_TYPE": null, "URBN_TYPE": 3, "COAST_TYPE": null, "geo": "FRJ28" }, "geometry": { "type": "MultiPolygon", "coordinates": [ [ [ [ 0.8951229, 44.3549578 ], [ 0.9311051, 44.2622989 ], [ 0.8907203, 44.1667491 ], [ 0.7418849, 44.065199 ], [ 0.9539832, 43.7873701 ], [ 1.2552841, 43.7844608 ], [ 1.555622, 43.9183171 ], [ 1.7020896, 44.0987825 ], [ 1.9901719, 44.1494499 ], [ 1.8820781, 44.340069 ], [ 1.3651842, 44.219711 ], [ 1.0640813, 44.3785085 ], [ 0.8951229, 44.3549578 ] ] ] ] } },
{ "type": "Feature", "properties": { "NUTS_ID": "FRK11", "LEVL_CODE": 3, "CNTR_CODE": "FR", "NAME_LATN": "Allier", "NUTS_NAME": "Allier", "MOUNT_TYPE": null, "URBN_TYPE": 3, "COAST_TYPE": null, "geo": "FRK11" }, "geometry": { "type": "MultiPolygon", "coordinates": [ [ [ [ 3.488478, 46.673029 ], [ 3.4370543, 46.6764652 ], [ 3.1940421, 46.6927035 ], [ 3.0320628, 46.794909399999987 ], [ 2.6958429, 46.7128546 ], [ 2.5666933, 46.5514026 ], [ 2.2810435, 46.4204035 ], [ 2.5653723, 46.143036 ], [ 2.8861163, 46.2331535 ], [ 3.0392549, 46.119816199999988 ], [ 3.4370543, 46.0425885 ], [ 3.6940149, 45.9307281 ], [ 3.8058313, 45.9990965 ], [ 3.80796, 46.229792599999989 ], [ 3.8995386, 46.2759078 ], [ 3.9807532, 46.331676 ], [ 3.9858257, 46.4487362 ], [ 3.7595087, 46.5418855 ], [ 3.6294223, 46.7494566 ], [ 3.488478, 46.673029 ] ] ] ] } },
{ "type": "Feature", "properties": { "NUTS_ID": "FRK12", "LEVL_CODE": 3, "CNTR_CODE": "FR", "NAME_LATN": "Cantal", "NUTS_NAME": "Cantal", "MOUNT_TYPE": 1, "URBN_TYPE": 3, "COAST_TYPE": null, "geo": "FRK12" }, "geometry": { "type": "MultiPolygon", "coordinates": [ [ [ [ 2.4752109, 45.3969735 ], [ 2.3928818, 45.3875317 ], [ 2.2183377, 45.234266 ], [ 2.0629079, 44.9765043 ], [ 2.2074729, 44.615529 ], [ 2.4914584, 44.668556 ], [ 2.7273188, 44.9216782 ], [ 2.8600291, 44.8544944 ], [ 2.9816757, 44.6446729 ], [ 3.0163266, 44.7086618 ], [ 3.0983381, 44.8601106 ], [ 3.3613477, 44.9714081 ], [ 3.2337568, 45.2397243 ], [ 3.1035007, 45.3543721 ], [ 3.0163266, 45.3260791 ], [ 2.9766417, 45.313199 ], [ 2.5084126, 45.4785013 ], [ 2.4752109, 45.3969735 ] ] ] ] } },
{ "type": "Feature", "properties": { "NUTS_ID": "FRK13", "LEVL_CODE": 3, "CNTR_CODE": "FR", "NAME_LATN": "Haute-Loire", "NUTS_NAME": "Haute-Loire", "MOUNT_TYPE": 1, "URBN_TYPE": 3, "COAST_TYPE": null, "geo": "FRK13" }, "geometry": { "type": "MultiPolygon", "coordinates": [ [ [ [ 3.6232557, 45.3578265 ], [ 3.5038682, 45.4157407 ], [ 3.4370543, 45.4054994 ], [ 3.1035007, 45.3543721 ], [ 3.2337568, 45.2397243 ], [ 3.3613477, 44.9714081 ], [ 3.4370543, 44.8816203 ], [ 3.4736461, 44.8382226 ], [ 3.6324568, 44.8665889 ], [ 3.862531, 44.7438659 ], [ 4.3102543, 44.9964758 ], [ 4.483132, 45.2364454 ], [ 4.2433105, 45.3795213 ], [ 3.8974085, 45.3570801 ], [ 3.6232557, 45.3578265 ] ] ] ] } },
{ "type": "Feature", "properties": { "NUTS_ID": "FRK14", "LEVL_CODE": 3, "CNTR_CODE": "FR", "NAME_LATN": "Puy-de-Dôme", "NUTS_NAME": "Puy-de-Dôme", "MOUNT_TYPE": 1, "URBN_TYPE": 2, "COAST_TYPE": null, "geo": "FRK14" }, "geometry": { "type": "MultiPolygon", "coordinates": [ [ [ [ 2.5084126, 45.4785013 ], [ 2.9766417, 45.313199 ], [ 3.0163266, 45.3260791 ], [ 3.1035007, 45.3543721 ], [ 3.4370543, 45.4054994 ], [ 3.5038682, 45.4157407 ], [ 3.6232557, 45.3578265 ], [ 3.8974085, 45.3570801 ], [ 3.9489873, 45.5374018 ], [ 3.716513, 45.780979 ], [ 3.6940149, 45.9307281 ], [ 3.4370543, 46.0425885 ], [ 3.0392549, 46.119816199999988 ], [ 2.8861163, 46.2331535 ], [ 2.5653723, 46.143036 ], [ 2.5949171, 45.9810142 ], [ 2.4307256, 45.8139743 ], [ 2.4921294, 45.7376699 ], [ 2.5084126, 45.4785013 ] ] ] ] } },
{ "type": "Feature", "properties": { "NUTS_ID": "FRK21", "LEVL_CODE": 3, "CNTR_CODE": "FR", "NAME_LATN": "Ain", "NUTS_NAME": "Ain", "MOUNT_TYPE": null, "URBN_TYPE": 3, "COAST_TYPE": null, "geo": "FRK21" }, "geometry": { "type": "MultiPolygon", "coordinates": [ [ [ [ 5.1520548, 46.5053344 ], [ 4.9455053, 46.4980154 ], [ 4.7802086, 46.1766759 ], [ 4.7661103, 45.9533912 ], [ 4.9419601, 45.8143549 ], [ 5.101069, 45.8133789 ], [ 5.2189432, 45.7837413 ], [ 5.3622706, 45.8607532 ], [ 5.6237432, 45.6132685 ], [ 5.7610143, 45.7380649 ], [ 5.8312302, 45.938457299999989 ], [ 5.8262817, 46.0775595 ], [ 5.9560668, 46.1320955 ], [ 6.1256078, 46.31723 ], [ 6.1455315, 46.3671027 ], [ 6.0640028, 46.4162291 ], [ 5.9019884, 46.2857261 ], [ 5.7770353, 46.262525 ], [ 5.6493328, 46.3176014 ], [ 5.4610865, 46.2838202 ], [ 5.3105637, 46.4467701 ], [ 5.1520548, 46.5053344 ] ] ] ] } },
{ "type": "Feature", "properties": { "NUTS_ID": "FRK22", "LEVL_CODE": 3, "CNTR_CODE": "FR", "NAME_LATN": "Ardèche", "NUTS_NAME": "Ardèche", "MOUNT_TYPE": 1, "URBN_TYPE": 3, "COAST_TYPE": null, "geo": "FRK22" }, "geometry": { "type": "MultiPolygon", "coordinates": [ [ [ [ 4.0848575, 44.3323315 ], [ 4.2022162, 44.284441 ], [ 4.5103273, 44.3301239 ], [ 4.6492274, 44.2703601 ], [ 4.6506108, 44.3298029 ], [ 4.7711953, 44.7589712 ], [ 4.8701196, 44.9216676 ], [ 4.8004899, 45.2983571 ], [ 4.7559997, 45.3656749 ], [ 4.483132, 45.2364454 ], [ 4.3102543, 44.9964758 ], [ 3.862531, 44.7438659 ], [ 3.9981615, 44.4597984 ], [ 4.0848575, 44.3323315 ] ] ] ] } },
{ "type": "Feature", "properties": { "NUTS_ID": "FRK23", "LEVL_CODE": 3, "CNTR_CODE": "FR", "NAME_LATN": "Drôme", "NUTS_NAME": "Drôme", "MOUNT_TYPE": 1, "URBN_TYPE": 2, "COAST_TYPE": null, "geo": "FRK23" }, "geometry": { "type": "MultiPolygon", "coordinates": [ [ [ [ 4.8701196, 44.9216676 ], [ 4.7711953, 44.7589712 ], [ 4.6506108, 44.3298029 ], [ 4.8753582, 44.2460389 ], [ 4.8967997, 44.3618505 ], [ 4.9810733, 44.4106784 ], [ 5.1701718, 44.2403996 ], [ 5.4987863, 44.1157167 ], [ 5.6760361, 44.1914284 ], [ 5.6401113, 44.2984416 ], [ 5.4614405, 44.3632889 ], [ 5.4536202, 44.4540942 ], [ 5.6038893, 44.4839444 ], [ 5.6423393, 44.6264665 ], [ 5.80147, 44.7067773 ], [ 5.4841942, 44.8007362 ], [ 5.4720911, 45.022967 ], [ 5.209969, 45.087937 ], [ 5.1812505, 45.2238966 ], [ 5.1011655, 45.2885713 ], [ 4.9938025, 45.3317878 ], [ 4.8004899, 45.2983571 ], [ 4.8701196, 44.9216676 ] ] ] ] } },
{ "type": "Feature", "properties": { "NUTS_ID": "FRK24", "LEVL_CODE": 3, "CNTR_CODE": "FR", "NAME_LATN": "Isère", "NUTS_NAME": "Isère", "MOUNT_TYPE": 1, "URBN_TYPE": 2, "COAST_TYPE": null, "geo": "FRK24" }, "geometry": { "type": "MultiPolygon", "coordinates": [ [ [ [ 4.8004899, 45.2983571 ], [ 4.9938025, 45.3317878 ], [ 5.1011655, 45.2885713 ], [ 5.1812505, 45.2238966 ], [ 5.209969, 45.087937 ], [ 5.4720911, 45.022967 ], [ 5.4841942, 44.8007362 ], [ 5.80147, 44.7067773 ], [ 6.134652, 44.8558933 ], [ 6.3366281, 44.868953499999989 ], [ 6.3385473, 44.9636817 ], [ 6.2223754, 45.029656 ], [ 6.26057, 45.1268439 ], [ 6.1456142, 45.2156709 ], [ 6.1462922, 45.4138958 ], [ 5.9670112, 45.4788265 ], [ 5.8094614, 45.4360953 ], [ 5.6237432, 45.6132685 ], [ 5.3622706, 45.8607532 ], [ 5.2189432, 45.7837413 ], [ 5.101069, 45.8133789 ], [ 5.0989285, 45.6900794 ], [ 4.8626889, 45.5821702 ], [ 4.7569317, 45.4557039 ], [ 4.7559997, 45.3656749 ], [ 4.8004899, 45.2983571 ] ] ] ] } },
{ "type": "Feature", "properties": { "NUTS_ID": "FRK25", "LEVL_CODE": 3, "CNTR_CODE": "FR", "NAME_LATN": "Loire", "NUTS_NAME": "Loire", "MOUNT_TYPE": 1, "URBN_TYPE": 2, "COAST_TYPE": null, "geo": "FRK25" }, "geometry": { "type": "MultiPolygon", "coordinates": [ [ [ [ 3.716513, 45.780979 ], [ 3.9489873, 45.5374018 ], [ 3.8974085, 45.3570801 ], [ 4.2433105, 45.3795213 ], [ 4.483132, 45.2364454 ], [ 4.7559997, 45.3656749 ], [ 4.7569317, 45.4557039 ], [ 4.3841378, 45.6692727 ], [ 4.3807031, 45.8531625 ], [ 4.2888763, 46.0363982 ], [ 4.4154276, 46.155314 ], [ 4.3880746, 46.2197904 ], [ 4.300052, 46.174252599999988 ], [ 3.9872847, 46.1794397 ], [ 3.8995386, 46.2759078 ], [ 3.80796, 46.229792599999989 ], [ 3.8058313, 45.9990965 ], [ 3.6940149, 45.9307281 ], [ 3.716513, 45.780979 ] ] ] ] } },
{ "type": "Feature", "properties": { "NUTS_ID": "FRK26", "LEVL_CODE": 3, "CNTR_CODE": "FR", "NAME_LATN": "Rhône", "NUTS_NAME": "Rhône", "MOUNT_TYPE": 1, "URBN_TYPE": 1, "COAST_TYPE": null, "geo": "FRK26" }, "geometry": { "type": "MultiPolygon", "coordinates": [ [ [ [ 4.6629983, 46.2876386 ], [ 4.4423772, 46.2924602 ], [ 4.3880746, 46.2197904 ], [ 4.4154276, 46.155314 ], [ 4.2888763, 46.0363982 ], [ 4.3807031, 45.8531625 ], [ 4.3841378, 45.6692727 ], [ 4.7569317, 45.4557039 ], [ 4.8626889, 45.5821702 ], [ 5.0989285, 45.6900794 ], [ 5.101069, 45.8133789 ], [ 4.9419601, 45.8143549 ], [ 4.7661103, 45.9533912 ], [ 4.7802086, 46.1766759 ], [ 4.6629983, 46.2876386 ] ] ] ] } }
]
}
