{
"type": "FeatureCollection",
"name": "regions_hcpc",
"crs": { "type": "name", "properties": { "name": "urn:ogc:def:crs:OGC:1.3:CRS84" } },
"features": [
{ "type": "Feature", "properties": { "region": "Auvergne et Rhône-Alpes", "clust": "2", "profil": "Profil territorial globalement favorable" }, "geometry": { "type": "Polygon", "coordinates": [ [ [ 5.1520548, 46.5053344 ], [ 4.9455053, 46.4980154 ], [ 4.7802086, 46.1766759 ], [ 4.6629983, 46.287638599999987 ], [ 4.4423772, 46.2924602 ], [ 4.3880746, 46.2197904 ], [ 4.300052, 46.174252599999981 ], [ 3.9872847, 46.1794397 ], [ 3.8995386, 46.2759078 ], [ 3.9807532, 46.331676 ], [ 3.9858257, 46.4487362 ], [ 3.7595087, 46.5418855 ], [ 3.6294223, 46.7494566 ], [ 3.488478, 46.673029 ], [ 3.4370543, 46.6764652 ], [ 3.1940421, 46.6927035 ], [ 3.0320628, 46.794909399999987 ], [ 2.6958429, 46.7128546 ], [ 2.5666933, 46.5514026 ], [ 2.2810435, 46.4204035 ], [ 2.5653723, 46.143036 ], [ 2.5949171, 45.9810142 ], [ 2.4307256, 45.8139743 ], [ 2.4921294, 45.7376699 ], [ 2.5084126, 45.4785013 ], [ 2.4752109, 45.3969735 ], [ 2.3928818, 45.3875317 ], [ 2.2183377, 45.234266 ], [ 2.0629079, 44.9765043 ], [ 2.2074729, 44.615529 ], [ 2.4914584, 44.668556 ], [ 2.7273188, 44.9216782 ], [ 2.8600291, 44.8544944 ], [ 2.9816757, 44.6446729 ], [ 3.0163266, 44.7086618 ], [ 3.0983381, 44.860110600000013 ], [ 3.3613477, 44.9714081 ], [ 3.4370543, 44.8816203 ], [ 3.4736461, 44.8382226 ], [ 3.6324568, 44.8665889 ], [ 3.862531, 44.7438659 ], [ 3.9981615, 44.4597984 ], [ 4.0848575, 44.3323315 ], [ 4.2022162, 44.284441 ], [ 4.5103273, 44.3301239 ], [ 4.6492274, 44.2703601 ], [ 4.6506108, 44.3298029 ], [ 4.8753582, 44.2460389 ], [ 4.8967997, 44.3618505 ], [ 4.9810733, 44.4106784 ], [ 5.1701718, 44.2403996 ], [ 5.4987863, 44.1157167 ], [ 5.6760361, 44.1914284 ], [ 5.6401113, 44.2984416 ], [ 5.4614405, 44.3632889 ], [ 5.4536202, 44.4540942 ], [ 5.6038893, 44.4839444 ], [ 5.6423393, 44.6264665 ], [ 5.80147, 44.7067773 ], [ 6.134652, 44.855893300000012 ], [ 6.3366281, 44.868953499999982 ], [ 6.3385473, 44.9636817 ], [ 6.2223754, 45.029656 ], [ 6.26057, 45.1268439 ], [ 6.4323186, 45.0638616 ], [ 6.6300509, 45.1098566 ], [ 7.0943704, 45.2312614 ], [ 7.1643001, 45.3994405 ], [ 7.104723, 45.4684544 ], [ 7.0118857, 45.5119672 ], [ 6.9807864, 45.627455499999982 ], [ 6.8023683, 45.778562 ], [ 7.044886, 45.9224131 ], [ 6.8180731, 46.155506899999985 ], [ 6.8210639, 46.427154399999985 ], [ 6.5044273, 46.449805799999986 ], [ 6.219547, 46.3118779 ], [ 6.2609539, 46.2437214 ], [ 6.215236, 46.1939528 ], [ 5.9560668, 46.1320955 ], [ 6.1256078, 46.31723 ], [ 6.1455315, 46.3671027 ], [ 6.0640028, 46.4162291 ], [ 5.9019884, 46.285726099999984 ], [ 5.7770353, 46.262525 ], [ 5.6493328, 46.317601399999987 ], [ 5.4610865, 46.2838202 ], [ 5.3105637, 46.4467701 ], [ 5.1520548, 46.5053344 ] ] ] } },
{ "type": "Feature", "properties": { "region": "Bourgogne et Franche-Comté", "clust": "4", "profil": "Profil de défavorisation et de santé défavorable" }, "geometry": { "type": "Polygon", "coordinates": [ [ [ 6.2188549, 47.9425077 ], [ 6.115305, 48.0109774 ], [ 5.8847237, 47.926046399999983 ], [ 5.7178225, 47.8258377 ], [ 5.6690262, 47.6897941 ], [ 5.4298455, 47.6672938 ], [ 5.37408, 47.6045379 ], [ 5.2656023, 47.590438 ], [ 4.975789, 47.7115134 ], [ 4.9491084, 47.868226199999988 ], [ 4.7042332, 48.0202349 ], [ 4.2934216, 47.9256735 ], [ 3.9154927, 47.940981 ], [ 3.7514662, 48.1441213 ], [ 3.6406873, 48.17442 ], [ 3.5703226, 48.3086739 ], [ 3.4370543, 48.369514800000012 ], [ 3.4137714, 48.3801441 ], [ 3.0725993, 48.3446138 ], [ 3.0163266, 48.2697854 ], [ 2.9363161, 48.1633916 ], [ 3.0163266, 48.0932589 ], [ 3.1187949, 48.003441 ], [ 3.0163266, 47.8138092 ], [ 2.886016, 47.737195 ], [ 2.9765355, 47.5694245 ], [ 2.8746307, 47.520425 ], [ 2.8924694, 47.335735799999988 ], [ 2.9854648, 47.2404761 ], [ 3.0163266, 47.153613799999988 ], [ 3.0676904, 47.0090474 ], [ 3.0320628, 46.794909399999987 ], [ 3.1940421, 46.6927035 ], [ 3.4370543, 46.6764652 ], [ 3.488478, 46.673029 ], [ 3.6294223, 46.7494566 ], [ 3.7595087, 46.5418855 ], [ 3.9858257, 46.4487362 ], [ 3.9807532, 46.331676 ], [ 3.8995386, 46.2759078 ], [ 3.9872847, 46.1794397 ], [ 4.300052, 46.174252599999981 ], [ 4.3880746, 46.2197904 ], [ 4.4423772, 46.2924602 ], [ 4.6629983, 46.287638599999987 ], [ 4.7802086, 46.1766759 ], [ 4.9455053, 46.4980154 ], [ 5.1520548, 46.5053344 ], [ 5.3105637, 46.4467701 ], [ 5.4610865, 46.2838202 ], [ 5.6493328, 46.317601399999987 ], [ 5.7770353, 46.262525 ], [ 5.9019884, 46.285726099999984 ], [ 6.0640028, 46.4162291 ], [ 6.1381058, 46.557667 ], [ 6.4174847, 46.7586081 ], [ 6.460011, 46.8515515 ], [ 6.4637572, 46.9339905 ], [ 6.8589139, 47.1652946 ], [ 7.0236876, 47.3318019 ], [ 6.9379068, 47.375441399999978 ], [ 6.939186, 47.433704399999989 ], [ 7.1303532, 47.503040399999989 ], [ 7.0178097, 47.7212266 ], [ 6.8461757, 47.8229426 ], [ 6.8235336, 47.813050899999986 ], [ 6.6086361, 47.9268173 ], [ 6.2188549, 47.9425077 ] ] ] } },
{ "type": "Feature", "properties": { "region": "Bretagne", "clust": "2", "profil": "Profil territorial globalement favorable" }, "geometry": { "type": "MultiPolygon", "coordinates": [ [ [ [ -3.5125059, 48.807857299999981 ], [ -3.659154, 48.6594239 ], [ -4.2463615, 48.6691356 ], [ -4.5916703, 48.5757225 ], [ -4.6960139, 48.4387121 ], [ -4.6130071, 48.3578487 ], [ -4.4251874, 48.3268274 ], [ -4.4787201, 48.2694306 ], [ -4.4314353, 48.153233199999988 ], [ -4.5117809, 48.0290866 ], [ -4.3562729, 47.8846783 ], [ -3.525858, 47.8111567 ], [ -3.4292739, 47.7182513 ], [ -3.1392409, 47.6069082 ], [ -2.7193083, 47.5124462 ], [ -2.5634691, 47.5306495 ], [ -2.4584759, 47.448005 ], [ -2.1371732, 47.525726 ], [ -2.0970339, 47.6313564 ], [ -1.9485363, 47.660314499999977 ], [ -1.684348, 47.7118331 ], [ -1.4625819, 47.81974839999998 ], [ -1.2458848, 47.7767174 ], [ -1.2382479, 47.8099926 ], [ -1.0791832, 47.9699676 ], [ -1.0386564, 48.0107263 ], [ -1.0527962, 48.1054161 ], [ -1.0701643, 48.508492 ], [ -1.4245571, 48.4877915 ], [ -1.5710998, 48.626501 ], [ -1.7610003, 48.616808899999988 ], [ -1.9485363, 48.6810069 ], [ -2.1238269, 48.604825499999983 ], [ -2.3671491, 48.6562372 ], [ -2.7077548, 48.5449756 ], [ -3.1392409, 48.8494516 ], [ -3.5125059, 48.807857299999981 ] ], [ [ -1.9908379, 48.5807646 ], [ -1.9722364, 48.5781273 ], [ -1.9628692, 48.558550799999985 ], [ -1.9683712, 48.5372766 ], [ -2.0068708, 48.5660907 ], [ -1.9908379, 48.5807646 ] ] ], [ [ [ -3.1874758, 47.3800238 ], [ -3.3031988, 47.3666341 ], [ -3.2161289, 47.2912933 ], [ -3.1370228, 47.3018536 ], [ -3.1874758, 47.3800238 ] ] ], [ [ [ -4.8358068, 48.080683199999989 ], [ -4.9317479, 48.038762 ], [ -4.8432238, 47.9905804 ], [ -4.7542258, 48.0193235 ], [ -4.8358068, 48.080683199999989 ] ] ] ] } },
{ "type": "Feature", "properties": { "region": "Centre-Val de Loire", "clust": "4", "profil": "Profil de défavorisation et de santé défavorable" }, "geometry": { "type": "Polygon", "coordinates": [ [ [ 1.3060574, 48.766662 ], [ 1.1394171, 48.7753416 ], [ 0.8148247, 48.6701636 ], [ 0.9478429, 48.5209699 ], [ 0.9188096, 48.3801441 ], [ 0.7822626, 48.322007599999985 ], [ 0.7976584, 48.194455 ], [ 0.8412176, 48.1030595 ], [ 0.8346123, 47.953119099999981 ], [ 0.6707594, 47.7604489 ], [ 0.6144323, 47.6942154 ], [ 0.3647229, 47.583868399999986 ], [ 0.2300006, 47.608397499999988 ], [ 0.216369, 47.5739906 ], [ 0.05383, 47.163733599999986 ], [ 0.3687903, 46.9476089 ], [ 0.6707594, 46.9678572 ], [ 0.8674692, 46.748216399999983 ], [ 0.9349789, 46.5954645 ], [ 1.135575, 46.4939339 ], [ 1.177279, 46.3839481 ], [ 1.4151853, 46.3472148 ], [ 1.7962795, 46.436777499999984 ], [ 2.1677844, 46.4240691 ], [ 2.2810435, 46.4204035 ], [ 2.5666933, 46.5514026 ], [ 2.6958429, 46.7128546 ], [ 3.0320628, 46.794909399999987 ], [ 3.0676904, 47.0090474 ], [ 3.0163266, 47.153613799999988 ], [ 2.9854648, 47.2404761 ], [ 2.8924694, 47.335735799999988 ], [ 2.8746307, 47.520425 ], [ 2.9765355, 47.5694245 ], [ 2.886016, 47.737195 ], [ 3.0163266, 47.8138092 ], [ 3.1187949, 48.003441 ], [ 3.0163266, 48.0932589 ], [ 2.9363161, 48.1633916 ], [ 2.5543149, 48.1450845 ], [ 2.4026632, 48.3207176 ], [ 1.9940901, 48.2865841 ], [ 1.968769, 48.3801441 ], [ 1.9221467, 48.4575994 ], [ 1.8220247, 48.4737988 ], [ 1.6177257, 48.6685308 ], [ 1.5015266, 48.941052 ], [ 1.3060574, 48.766662 ] ] ] } },
{ "type": "Feature", "properties": { "region": "Corse", "clust": "3", "profil": "Profil de santé contrasté" }, "geometry": { "type": "Polygon", "coordinates": [ [ [ 9.4071494, 43.0013859 ], [ 9.3471628, 42.9724023 ], [ 9.3311449, 42.8593531 ], [ 9.3052842, 42.701402 ], [ 9.147126, 42.7275036 ], [ 8.827268, 42.6010777 ], [ 8.6890571, 42.5250232 ], [ 8.591254, 42.3750978 ], [ 8.663098, 42.2689884 ], [ 8.5849193, 42.1672035 ], [ 8.7098425, 42.0613742 ], [ 8.6782547, 42.0045788 ], [ 8.6312742, 41.9201073 ], [ 8.7828123, 41.8986566 ], [ 8.7220271, 41.748567900000012 ], [ 8.8594551, 41.678187 ], [ 8.8013933, 41.5989872 ], [ 8.8382282, 41.5340093 ], [ 9.207268, 41.3873661 ], [ 9.3609536, 41.5779851 ], [ 9.4021976, 41.8586661 ], [ 9.4722304, 42.004578800000012 ], [ 9.5556255, 42.1783318 ], [ 9.5241323, 42.544183 ], [ 9.461183, 42.6747781 ], [ 9.480497, 42.8593531 ], [ 9.4071494, 43.0013859 ] ] ] } },
{ "type": "Feature", "properties": { "region": "Grand Est", "clust": "4", "profil": "Profil de défavorisation et de santé défavorable" }, "geometry": { "type": "Polygon", "coordinates": [ [ [ 4.8697416, 50.1288288 ], [ 4.7966971, 50.1486782 ], [ 4.6633902, 49.994970599999981 ], [ 4.4324938, 49.941616 ], [ 4.2330547, 49.9578306 ], [ 4.2064192, 49.7313942 ], [ 4.0420493, 49.604542399999985 ], [ 4.0479747, 49.405644099999989 ], [ 3.670262, 49.314025 ], [ 3.6546413, 49.0075307 ], [ 3.4851835, 48.851910599999989 ], [ 3.4370543, 48.7965995 ], [ 3.4147873, 48.7710098 ], [ 3.4370543, 48.7208631 ], [ 3.4721392, 48.6418495 ], [ 3.555614, 48.6202856 ], [ 3.4370543, 48.5123802 ], [ 3.4052298, 48.4834155 ], [ 3.4137714, 48.3801441 ], [ 3.4370543, 48.369514800000012 ], [ 3.5703226, 48.3086739 ], [ 3.6406873, 48.17442 ], [ 3.7514662, 48.1441213 ], [ 3.9154927, 47.940981 ], [ 4.2934216, 47.9256735 ], [ 4.7042332, 48.0202349 ], [ 4.9491084, 47.868226199999988 ], [ 4.975789, 47.7115134 ], [ 5.2656023, 47.590438 ], [ 5.37408, 47.6045379 ], [ 5.4298455, 47.6672938 ], [ 5.6690262, 47.6897941 ], [ 5.7178225, 47.8258377 ], [ 5.8847237, 47.926046399999983 ], [ 6.115305, 48.0109774 ], [ 6.2188549, 47.9425077 ], [ 6.6086361, 47.9268173 ], [ 6.8235336, 47.813050899999986 ], [ 6.8461757, 47.8229426 ], [ 7.0178097, 47.7212266 ], [ 7.1303532, 47.503040399999989 ], [ 7.2236152, 47.4301816 ], [ 7.3808939, 47.431892499999982 ], [ 7.5109057, 47.5025826 ], [ 7.5551596, 47.564563799999988 ], [ 7.5890392, 47.589878 ], [ 7.5459904, 47.743574 ], [ 7.6045451, 47.9689129 ], [ 7.5772908, 48.115655099999984 ], [ 7.5769817, 48.1190564 ], [ 7.6807129, 48.2572672 ], [ 7.7317751, 48.3801441 ], [ 7.8246221, 48.6114349 ], [ 7.9596303, 48.718581 ], [ 8.2326329, 48.9665714 ], [ 8.06831, 48.9993459 ], [ 7.9106547, 49.0451634 ], [ 7.6356509, 49.0539504 ], [ 7.4787261, 49.1577501 ], [ 7.3687555, 49.161458099999983 ], [ 7.249932, 49.117937699999985 ], [ 7.101069, 49.155998 ], [ 6.9307115, 49.2162024 ], [ 6.7793777, 49.1618007 ], [ 6.7234657, 49.2188291 ], [ 6.5569858, 49.4192084 ], [ 6.3671076, 49.469507 ], [ 5.893386, 49.4969446 ], [ 5.8181169, 49.5463106 ], [ 5.7345269, 49.5457708 ], [ 5.4707165, 49.497324499999984 ], [ 5.3935112, 49.6171109 ], [ 5.1537385, 49.717926 ], [ 4.969431, 49.8018261 ], [ 4.8715628, 49.8109705 ], [ 4.8099508, 49.9748571 ], [ 4.8697416, 50.1288288 ] ] ] } },
{ "type": "Feature", "properties": { "region": "Hauts-de-France", "clust": "4", "profil": "Profil de défavorisation et de santé défavorable" }, "geometry": { "type": "Polygon", "coordinates": [ [ [ 4.1408531, 49.9787602 ], [ 4.2064941, 50.0759261 ], [ 4.1574695, 50.1698624 ], [ 4.1938515, 50.2501164 ], [ 4.0424939, 50.3398324 ], [ 4.0277744, 50.3583305 ], [ 3.7046567, 50.3264797 ], [ 3.6555101, 50.4617355 ], [ 3.6150814, 50.490399 ], [ 3.4370543, 50.5085396 ], [ 3.3130435, 50.5211762 ], [ 3.1769958, 50.7561646 ], [ 3.0984808, 50.7790191 ], [ 3.0163266, 50.7744829 ], [ 2.8643491, 50.7074929 ], [ 2.6479864, 50.8250138 ], [ 2.6070361, 50.9126894 ], [ 2.5460882, 51.0893883 ], [ 2.0677287, 51.006630499999986 ], [ 1.5995352, 50.8621491 ], [ 1.5664405, 50.4319114 ], [ 1.6447371, 50.350413 ], [ 1.5552125, 50.3282659 ], [ 1.5992051, 50.213340399999986 ], [ 1.3796403, 50.0651205 ], [ 1.6933739, 49.8922474 ], [ 1.7838342, 49.7583096 ], [ 1.7074573, 49.6988079 ], [ 1.7139305, 49.409225 ], [ 1.7565947, 49.300374399999981 ], [ 1.7043588, 49.2321971 ], [ 1.7881659, 49.1781149 ], [ 2.1159631, 49.198932299999981 ], [ 2.5905286, 49.0796541 ], [ 3.0163266, 49.1131795 ], [ 3.0718801, 49.1175536 ], [ 3.4370543, 48.8828447 ], [ 3.4851835, 48.851910599999989 ], [ 3.6546413, 49.0075307 ], [ 3.670262, 49.314025 ], [ 4.0479747, 49.405644099999989 ], [ 4.0420493, 49.604542399999985 ], [ 4.2064192, 49.7313942 ], [ 4.2330547, 49.9578306 ], [ 4.1408531, 49.9787602 ] ] ] } },
{ "type": "Feature", "properties": { "region": "Normandie", "clust": "4", "profil": "Profil de défavorisation et de santé défavorable" }, "geometry": { "type": "Polygon", "coordinates": [ [ [ 1.7838342, 49.7583096 ], [ 1.6933739, 49.8922474 ], [ 1.3796403, 50.0651205 ], [ 1.0816273, 49.933887299999988 ], [ 0.6707594, 49.8634876 ], [ 0.5869434, 49.8491263 ], [ 0.216369, 49.715744399999984 ], [ 0.0765929, 49.521739 ], [ 0.122182, 49.4711915 ], [ 0.216369, 49.4510921 ], [ 0.3851102, 49.4525703 ], [ 0.5060579, 49.485968899999989 ], [ 0.581313, 49.4381056 ], [ 0.6209959, 49.431276 ], [ 0.5834522, 49.4338096 ], [ 0.5009805, 49.4781067 ], [ 0.4012733, 49.445958 ], [ 0.2972213, 49.4299034 ], [ 0.216369, 49.4068324 ], [ -0.2080219, 49.285733199999974 ], [ -0.7966022, 49.354592699999984 ], [ -0.9327987, 49.377689599999989 ], [ -1.0184351, 49.3922122 ], [ -1.0791832, 49.3502058 ], [ -1.1195874, 49.322266899999981 ], [ -1.2276599, 49.4593957 ], [ -1.284473, 49.5307392 ], [ -1.2473858, 49.633162799999987 ], [ -1.3248009, 49.687417199999985 ], [ -1.6126932, 49.6531646 ], [ -1.9252543, 49.7099148 ], [ -1.8308967, 49.4593957 ], [ -1.6144065, 49.1948495 ], [ -1.5629131, 48.9814917 ], [ -1.5925331, 48.8147757 ], [ -1.4746236, 48.642473699999989 ], [ -1.5122956, 48.6173958 ], [ -1.5710998, 48.626501 ], [ -1.4245571, 48.4877915 ], [ -1.0701643, 48.508492 ], [ -0.9327987, 48.503887 ], [ -0.8603599, 48.5014586 ], [ -0.7613197, 48.4708729 ], [ -0.2183448, 48.538602599999983 ], [ -0.053214, 48.3801441 ], [ 0.216369, 48.4532621 ], [ 0.2717862, 48.4789274 ], [ 0.35487, 48.4441285 ], [ 0.3790787, 48.3801441 ], [ 0.5399383, 48.2628833 ], [ 0.6707594, 48.2281485 ], [ 0.7976584, 48.194455 ], [ 0.7822626, 48.322007599999985 ], [ 0.9188096, 48.3801441 ], [ 0.9478429, 48.5209699 ], [ 0.8148247, 48.6701636 ], [ 1.1394171, 48.7753416 ], [ 1.3060574, 48.766662 ], [ 1.5015266, 48.941052 ], [ 1.4834771, 49.0300783 ], [ 1.6087989, 49.077894 ], [ 1.7043588, 49.2321971 ], [ 1.7565947, 49.300374399999981 ], [ 1.7139305, 49.409225 ], [ 1.7074573, 49.6988079 ], [ 1.7838342, 49.7583096 ] ] ] } },
{ "type": "Feature", "properties": { "region": "Nouvelle Aquitaine", "clust": "3", "profil": "Profil de santé contrasté" }, "geometry": { "type": "MultiPolygon", "coordinates": [ [ [ [ -1.2919324, 46.2168198 ], [ -1.4003489, 46.1664372 ], [ -1.3041373, 46.1263789 ], [ -1.2206083, 46.1759816 ], [ -1.2919324, 46.2168198 ] ] ], [ [ [ 2.1677844, 46.4240691 ], [ 1.7962795, 46.436777499999984 ], [ 1.4151853, 46.3472148 ], [ 1.177279, 46.3839481 ], [ 1.135575, 46.4939339 ], [ 0.9349789, 46.5954645 ], [ 0.8674692, 46.748216399999983 ], [ 0.6707594, 46.9678572 ], [ 0.3687903, 46.9476089 ], [ 0.05383, 47.163733599999986 ], [ -0.1021162, 47.0648 ], [ -0.2899194, 47.0909195 ], [ -0.891964, 46.9758206 ], [ -0.7966022, 46.8607297 ], [ -0.6531425, 46.6798148 ], [ -0.5633733, 46.3814848 ], [ -0.7504716, 46.3042544 ], [ -0.9327987, 46.3126067 ], [ -1.0791832, 46.3193125 ], [ -1.1863707, 46.1755045 ], [ -1.0902529, 46.0319784 ], [ -1.1266946, 45.865756299999987 ], [ -1.1846107, 45.8373974 ], [ -1.2912986, 45.9888419 ], [ -1.3625322, 45.9695422 ], [ -1.2009164, 45.6953129 ], [ -0.9327987, 45.544555799999983 ], [ -0.7966022, 45.471370799999988 ], [ -0.7148253, 45.32837 ], [ -0.7937867, 45.328431 ], [ -0.9327987, 45.4205725 ], [ -1.0791832, 45.5176006 ], [ -1.1307205, 45.4876077 ], [ -1.2302772, 44.7952704 ], [ -1.1140763, 44.684692899999988 ], [ -1.2540859, 44.4676385 ], [ -1.3382106, 44.1011985 ], [ -1.4404121, 43.6560176 ], [ -1.5247571, 43.529595099999987 ], [ -1.7455232, 43.3783094 ], [ -1.7859814, 43.3505843 ], [ -1.728903, 43.296089 ], [ -1.4368386, 43.2512676 ], [ -1.4028966, 43.0640713 ], [ -0.9303069, 42.9892056 ], [ -0.7966022, 42.9585362 ], [ -0.754235, 42.960269599999982 ], [ -0.7245012, 42.9201587 ], [ -0.656194, 42.8593531 ], [ -0.5515181, 42.7962076 ], [ -0.313342, 42.8493649 ], [ -0.2694879, 42.9892056 ], [ -0.0992829, 43.1833443 ], [ -0.1351297, 43.2793206 ], [ -0.0230353, 43.351573799999983 ], [ -0.0967882, 43.5824051 ], [ -0.242833, 43.5849791 ], [ -0.1901208, 43.8981163 ], [ -0.0487073, 43.9619016 ], [ 0.0487817, 43.9251751 ], [ 0.0760437, 43.9831385 ], [ 0.216369, 44.0004326 ], [ 0.6707594, 44.0564332 ], [ 0.7418849, 44.065199 ], [ 0.8907203, 44.1667491 ], [ 0.9311051, 44.2622989 ], [ 0.8951229, 44.354957799999987 ], [ 1.0640813, 44.3785085 ], [ 1.0227401, 44.5133661 ], [ 1.0751419, 44.5773255 ], [ 1.394294, 44.8563299 ], [ 1.4482598, 45.019313899999986 ], [ 1.6105882, 45.0315511 ], [ 1.7791372, 44.9378338 ], [ 2.0629079, 44.9765043 ], [ 2.2183377, 45.234266 ], [ 2.3928818, 45.3875317 ], [ 2.4752109, 45.3969735 ], [ 2.5084126, 45.4785013 ], [ 2.4921294, 45.7376699 ], [ 2.4307256, 45.8139743 ], [ 2.5949171, 45.9810142 ], [ 2.5653723, 46.143036 ], [ 2.2810435, 46.4204035 ], [ 2.1677844, 46.4240691 ] ] ] ] } },
{ "type": "Feature", "properties": { "region": "Occitanie", "clust": "3", "profil": "Profil de santé contrasté" }, "geometry": { "type": "Polygon", "coordinates": [ [ [ 1.4482598, 45.019313899999986 ], [ 1.394294, 44.8563299 ], [ 1.0751419, 44.5773255 ], [ 1.0227401, 44.5133661 ], [ 1.0640813, 44.3785085 ], [ 0.8951229, 44.354957799999987 ], [ 0.9311051, 44.2622989 ], [ 0.8907203, 44.1667491 ], [ 0.7418849, 44.065199 ], [ 0.6707594, 44.0564332 ], [ 0.216369, 44.0004326 ], [ 0.0760437, 43.9831385 ], [ 0.0487817, 43.9251751 ], [ -0.0487073, 43.9619016 ], [ -0.1901208, 43.8981163 ], [ -0.242833, 43.5849791 ], [ -0.0967882, 43.5824051 ], [ -0.0230353, 43.351573799999983 ], [ -0.1351297, 43.2793206 ], [ -0.0992829, 43.1833443 ], [ -0.2694879, 42.9892056 ], [ -0.313342, 42.8493649 ], [ -0.1204333, 42.7466394 ], [ 0.0108164, 42.6970236 ], [ 0.4776701, 42.7000474 ], [ 0.6707594, 42.6796867 ], [ 0.6803408, 42.7466394 ], [ 0.7154843, 42.8434563 ], [ 0.8582151, 42.8257412 ], [ 1.1894169, 42.7466394 ], [ 1.3460864, 42.7092217 ], [ 1.4425662, 42.603667900000012 ], [ 1.538227, 42.6411964 ], [ 1.7860987, 42.5736581 ], [ 1.7258012, 42.504402 ], [ 1.7310109, 42.4924008 ], [ 1.9215692, 42.451685 ], [ 2.0400461, 42.3615916 ], [ 2.240354, 42.4321301 ], [ 2.5472071, 42.343257099999988 ], [ 2.8844346, 42.4607135 ], [ 3.0163266, 42.4491113 ], [ 3.1740224, 42.4352391 ], [ 3.047538, 42.5847065 ], [ 3.0476406, 42.7466394 ], [ 3.0477121, 42.8593531 ], [ 3.0842124, 43.0435879 ], [ 3.2405162, 43.2128675 ], [ 3.4370543, 43.2909371 ], [ 4.1010837, 43.55470540000001 ], [ 4.2302804, 43.4601835 ], [ 4.4898715, 43.6828561 ], [ 4.6209803, 43.7064036 ], [ 4.7390597, 43.9240618 ], [ 4.7971218, 44.0209056 ], [ 4.6492274, 44.2703601 ], [ 4.5103273, 44.3301239 ], [ 4.2022162, 44.284441 ], [ 4.0848575, 44.3323315 ], [ 3.9981615, 44.4597984 ], [ 3.862531, 44.7438659 ], [ 3.6324568, 44.8665889 ], [ 3.4736461, 44.8382226 ], [ 3.4370543, 44.8816203 ], [ 3.3613477, 44.9714081 ], [ 3.0983381, 44.860110600000013 ], [ 3.0163266, 44.7086618 ], [ 2.9816757, 44.6446729 ], [ 2.8600291, 44.8544944 ], [ 2.7273188, 44.9216782 ], [ 2.4914584, 44.668556 ], [ 2.2074729, 44.615529 ], [ 2.0629079, 44.9765043 ], [ 1.7791372, 44.9378338 ], [ 1.6105882, 45.0315511 ], [ 1.4482598, 45.019313899999986 ] ] ] } },
{ "type": "Feature", "properties": { "region": "Pays de la Loire", "clust": "2", "profil": "Profil territorial globalement favorable" }, "geometry": { "type": "MultiPolygon", "coordinates": [ [ [ [ -0.7613197, 48.4708729 ], [ -0.8603599, 48.5014586 ], [ -0.9327987, 48.503887 ], [ -1.0701643, 48.508492 ], [ -1.0527962, 48.1054161 ], [ -1.0386564, 48.0107263 ], [ -1.0791832, 47.9699676 ], [ -1.2382479, 47.8099926 ], [ -1.2458848, 47.7767174 ], [ -1.4625819, 47.81974839999998 ], [ -1.684348, 47.7118331 ], [ -1.9485363, 47.660314499999977 ], [ -2.0970339, 47.6313564 ], [ -2.1371732, 47.525726 ], [ -2.4584759, 47.448005 ], [ -2.5133041, 47.3681479 ], [ -2.4736749, 47.2957288 ], [ -2.1885364, 47.2541845 ], [ -2.1686616, 47.1403206 ], [ -1.9804646, 47.028722099999982 ], [ -2.1432236, 46.8692237 ], [ -2.0229593, 46.7494261 ], [ -1.9485363, 46.6713959 ], [ -1.7614304, 46.475220899999982 ], [ -1.2341917, 46.2866301 ], [ -1.0791832, 46.3193125 ], [ -0.9327987, 46.3126067 ], [ -0.7504716, 46.3042544 ], [ -0.5633733, 46.3814848 ], [ -0.6531425, 46.6798148 ], [ -0.7966022, 46.8607297 ], [ -0.891964, 46.9758206 ], [ -0.2899194, 47.0909195 ], [ -0.1021162, 47.0648 ], [ 0.05383, 47.163733599999986 ], [ 0.216369, 47.5739906 ], [ 0.2300006, 47.608397499999988 ], [ 0.3647229, 47.583868399999986 ], [ 0.6144323, 47.6942154 ], [ 0.6707594, 47.7604489 ], [ 0.8346123, 47.953119099999981 ], [ 0.8412176, 48.1030595 ], [ 0.7976584, 48.194455 ], [ 0.6707594, 48.2281485 ], [ 0.5399383, 48.2628833 ], [ 0.3790787, 48.3801441 ], [ 0.35487, 48.4441285 ], [ 0.2717862, 48.4789274 ], [ 0.216369, 48.4532621 ], [ -0.053214, 48.3801441 ], [ -0.2183448, 48.538602599999983 ], [ -0.7613197, 48.4708729 ] ] ], [ [ [ -2.3466793, 47.0531094 ], [ -2.3160117, 46.9709107 ], [ -2.2290361, 46.9564576 ], [ -2.2393481, 47.0451159 ], [ -2.3466793, 47.0531094 ] ] ] ] } },
{ "type": "Feature", "properties": { "region": "Provence-Alpes-Côte d'Azur", "clust": "3", "profil": "Profil de santé contrasté" }, "geometry": { "type": "Polygon", "coordinates": [ [ [ 6.2223754, 45.029656 ], [ 6.3385473, 44.9636817 ], [ 6.3366281, 44.868953499999982 ], [ 6.134652, 44.855893300000012 ], [ 5.80147, 44.7067773 ], [ 5.6423393, 44.6264665 ], [ 5.6038893, 44.4839444 ], [ 5.4536202, 44.4540942 ], [ 5.4614405, 44.3632889 ], [ 5.6401113, 44.2984416 ], [ 5.6760361, 44.1914284 ], [ 5.4987863, 44.1157167 ], [ 5.1701718, 44.2403996 ], [ 4.9810733, 44.4106784 ], [ 4.8967997, 44.3618505 ], [ 4.8753582, 44.2460389 ], [ 4.6506108, 44.3298029 ], [ 4.6492274, 44.2703601 ], [ 4.7971218, 44.0209056 ], [ 4.7390597, 43.9240618 ], [ 4.6209803, 43.7064036 ], [ 4.4898715, 43.6828561 ], [ 4.2302804, 43.4601835 ], [ 4.5266189, 43.4418811 ], [ 4.6363813, 43.3583225 ], [ 4.845159, 43.358010399999984 ], [ 4.9111384, 43.4206364 ], [ 5.0824761, 43.3347674 ], [ 5.312121, 43.3442825 ], [ 5.3682651, 43.2205413 ], [ 5.6718793, 43.1792691 ], [ 5.8320898, 43.0627156 ], [ 5.9196497, 43.1095395 ], [ 6.3452127, 43.1029218 ], [ 6.6413231, 43.1810723 ], [ 6.7447744, 43.396242 ], [ 6.9313253, 43.480257900000012 ], [ 7.1873066, 43.6586258 ], [ 7.415697, 43.7259105 ], [ 7.4103975, 43.729345 ], [ 7.4128282, 43.7317125 ], [ 7.413383, 43.7345771 ], [ 7.4373582, 43.7516323 ], [ 7.4392647, 43.7490302 ], [ 7.4405615, 43.7498761 ], [ 7.52986, 43.784013 ], [ 7.5236373, 43.891002899999989 ], [ 7.7142364, 44.0615136 ], [ 7.6616882, 44.161872 ], [ 7.3111363, 44.1383037 ], [ 7.0233725, 44.239177 ], [ 6.887428, 44.361286899999989 ], [ 6.9484431, 44.654742 ], [ 7.0657551, 44.7134644 ], [ 6.9882372, 44.8351346 ], [ 6.7755916, 44.8996757 ], [ 6.6300509, 45.1098566 ], [ 6.4323186, 45.0638616 ], [ 6.26057, 45.1268439 ], [ 6.2223754, 45.029656 ] ] ] } },
{ "type": "Feature", "properties": { "region": "Île-de-France", "clust": "1", "profil": "Profil francilien atypique" }, "geometry": { "type": "Polygon", "coordinates": [ [ [ 1.6087989, 49.077894 ], [ 1.4834771, 49.0300783 ], [ 1.5015266, 48.941052 ], [ 1.6177257, 48.6685308 ], [ 1.8220247, 48.4737988 ], [ 1.9221467, 48.4575994 ], [ 1.968769, 48.3801441 ], [ 1.9940901, 48.2865841 ], [ 2.4026632, 48.3207176 ], [ 2.5543149, 48.1450845 ], [ 2.9363161, 48.1633916 ], [ 3.0163266, 48.2697854 ], [ 3.0725993, 48.3446138 ], [ 3.4137714, 48.3801441 ], [ 3.4052298, 48.4834155 ], [ 3.4370543, 48.5123802 ], [ 3.555614, 48.6202856 ], [ 3.4721392, 48.6418495 ], [ 3.4370543, 48.7208631 ], [ 3.4147873, 48.7710098 ], [ 3.4370543, 48.7965995 ], [ 3.4851835, 48.851910599999989 ], [ 3.4370543, 48.8828447 ], [ 3.0718801, 49.1175536 ], [ 3.0163266, 49.1131795 ], [ 2.5905286, 49.0796541 ], [ 2.1159631, 49.198932299999981 ], [ 1.7881659, 49.1781149 ], [ 1.7043588, 49.2321971 ], [ 1.6087989, 49.077894 ] ] ] } }
]
}
